X,Y,ID,NOMBRE,MUNICIPIO,PROVINCIA,ALTURA,LATITUD,LONGITUD
-7.684722222222222,43.786111111111111,1351,Estaca de Bares,Mañón,A Coruña,80,43 47 10,-07 41 05
-7.861388888888889,43.446111111111108,1363X,As Pontes,"Pontes de García Rodríguez, As",A Coruña,343,43 26 46,-07 51 41
-8.421388888888888,43.365833333333335,1387,A Coruña,"Coruña, A",A Coruña,58,43 21 57,-08 25 17
-8.372222222222222,43.306944444444447,1387E,A Coruña Aeropuerto,Culleredo,A Coruña,98,43 18 25,-08 22 20
-8.710833333333333,43.203611111111108,1390X,"Carballo, Depuradora",Carballo,A Coruña,98,43 12 13,-08 42 39
-9.210833333333333,43.160555555555554,1393,Cabo Vilan,Camariñas,A Coruña,50,43 09 38,-09 12 39
-9.046944444444444,43.0575,1399,Vimianzo,Vimianzo,A Coruña,287,43 03 27,-09 02 49
-9.291388888888889,42.924722222222222,1400,Fisterra,Fisterra,A Coruña,230,42 55 29,-09 17 29
-8.993611111111111,42.935277777777777,1406X,Mazaricos,Mazaricos,A Coruña,340,42 56 07,-08 59 37
-8.022222222222222,43.037777777777777,1410X,Sobrado,Sobrado,A Coruña,500,43 02 16,-08 01 20
-8.410833333333333,42.887777777777778,1428,Santiago de Compostela Aeropuerto,"Pino, O",A Coruña,370,42 53 16,-08 24 39
-8.876111111111111,42.800277777777779,1435C,Noia,Noia,A Coruña,128,42 48 01,-08 52 34
-8.892222222222221,42.643888888888888,1442U,Boiro,Boiro,A Coruña,10,42 38 38,-08 53 32
-8.627222222222223,42.73833333333333,1473A,Padrón,Padrón,A Coruña,100,42 44 18,-08 37 38
-8.555833333333334,42.876111111111108,1475X,Santiago de Compostela,Santiago de Compostela,A Coruña,240,42 52 34,-08 33 21
-8.714722222222223,42.749722222222225,1476R,"Rois, Casas do Porto",Rois,A Coruña,210,42 44 59,-08 42 53
-2.745,38.965833333333336,4007Y,Ossa de Montiel,Ossa de Montiel,Albacete,905,38 57 57,-02 44 42
-2.5925,39.261944444444445,4091Y,Villarrobledo,Villarrobledo,Albacete,718,39 15 43,-02 35 33
-2.488888888888889,39.016666666666666,4096Y,Munera,Munera,Albacete,918,39 01 00,-02 29 20
-2.218888888888889,38.393055555555556,7066Y,"Yeste, Embalse Fuensanta",Yeste,Albacete,680,38 23 35,-02 13 08
-2.293888888888889,38.295,7072Y,Yeste,Yeste,Albacete,960,38 17 42,-02 17 38
-1.703055555555556,38.541944444444447,7096B,Hellín,Hellín,Albacete,605,38 32 31,-01 42 11
-1.689444444444444,38.588055555555556,7103Y,Tobarra,Tobarra,Albacete,615,38 35 17,-01 41 22
-1.658888888888889,38.936944444444443,8177A,Chinchilla,Chinchilla de Monte-Aragón,Albacete,880,38 56 13,-01 39 32
-1.862222222222222,39.005555555555553,8178D,Albacete,Albacete,Albacete,674,39 00 20,-01 51 44
-1.435555555555555,39.198611111111113,8191Y,Alcalá del Júcar,Alcalá del Júcar,Albacete,680,39 11 55,-01 26 08
-1.063055555555556,38.850555555555559,8198Y,Almansa,Almansa,Albacete,710,38 51 02,-01 03 47
-0.981388888888889,38.067777777777778,7244X,Orihuela,Orihuela,Alacant/Alicante,26,38 04 04,-00 58 53
-1.038055555555556,38.399722222222223,7247X,Pinoso,"Pinós, el/Pinoso",Alacant/Alicante,575,38 23 59,-01 02 17
-0.715277777777778,38.088055555555556,7261X,Rojales,Rojales,Alacant/Alicante,31,38 05 17,-00 42 55
-0.865555555555556,38.576944444444443,8008Y,Villena,Villena,Alacant/Alicante,486,38 34 37,-00 51 56
-0.757777777777778,38.386666666666663,8013X,Novelda,Novelda,Alacant/Alicante,230,38 23 12,-00 45 28
-0.680555555555556,38.2875,8018X,Elche/Elx,Elche/Elx,Alacant/Alicante,110,38 17 15,-00 40 50
-0.570833333333333,38.282777777777781,8019,Alicante/Alacant Aeropuerto,Elche/Elx,Alacant/Alicante,43,38 16 58,-00 34 15
-0.494166666666667,38.3725,8025,Alicante/Alacant,Alacant/Alicante,Alacant/Alicante,81,38 22 21,-00 29 39
0.167777777777778,38.783611111111114,8050X,Jávea/ Xàbia,Jávea/Xàbia,Alacant/Alicante,15,38 47 01,00 10 04
-0.118333333333333,38.846666666666664,8057C,Pego,Pego,Alacant/Alicante,60,38 50 48,-00 07 06
-0.46,38.710833333333333,8059C,Alcoy/Alcoi,Alcoy/Alcoi,Alacant/Alicante,530,38 42 39,-00 27 36
-2.228055555555556,37.860833333333332,5060X,Vélez Blanco,Vélez-Blanco,Almería,1190,37 51 39,-02 13 41
-3.020555555555556,36.74722222222222,6277B,Adra,Adra,Almería,8,36 44 50,-03 01 14
-2.813055555555556,36.774722222222223,6291B,El Ejido,"Ejido, El",Almería,98,36 46 29,-02 48 47
-2.701666666666667,36.686944444444443,6293X,Roquetas de Mar,"Ejido, El",Almería,3,36 41 13,-02 42 06
-2.78,37.141388888888891,6302A,Abla,Abla,Almería,885,37 08 29,-02 46 48
-2.910833333333333,37.0275,6307X,Láujar de Andarax,Láujar de Andarax,Almería,1510,37 01 39,-02 54 39
-2.356944444444444,36.846388888888889,6325O,Almería Aeropuerto,Almería,Almería,21,36 50 47,-02 21 25
-2.193055555555556,36.721944444444446,6329X,Cabo de Gata,Níjar,Almería,42,36 43 19,-02 11 35
-1.903333333333333,36.98,6332X,Carboneras,Carboneras,Almería,12,36 58 48,-01 54 12
-1.816666666666667,37.178888888888892,6340X,"Garrucha, Puerto",Garrucha,Almería,12,37 10 44,-01 49 00
-2.151388888888889,37.406666666666666,6364X,Albox,Albox,Almería,508,37 24 24,-02 09 05
-1.943611111111111,37.390555555555558,6367B,Huercal Overa,Huércal-Overa,Almería,300,37 23 26,-01 56 37
-3.036111111111111,35.938333333333333,6381,Alborán,Almería,Almería,15,35 56 18,-03 02 10
-2.589444444444444,43.05777777777778,1044X,Aramaio,Aramaio,Araba/Álava,617,43 03 28,-02 35 22
-3.005555555555556,43.050277777777779,1060X,Amurrio,Amurrio,Araba/Álava,240,43 03 01,-03 00 20
-3.231666666666666,42.875277777777775,9060X,Lalastra,Valdegovía/Gaubea,Araba/Álava,910,42 52 31,-03 13 54
-2.359722222222222,42.829722222222223,9073X,Opakua,Salvatierra/Agurain,Araba/Álava,660,42 49 47,-02 21 35
-2.733333333333333,42.871944444444445,9091R,Vitoria Gasteiz Aeropuerto,Vitoria-Gasteiz,Araba/Álava,513,42 52 19,-02 44 00
-2.774722222222222,42.6025,9122I,Labastida,Labastida/Bastida,Araba/Álava,610,42 36 09,-02 46 29
-2.632777777777778,42.56722222222222,9145X,Leza,Leza,Araba/Álava,575,42 34 02,-02 37 58
-2.346111111111111,42.670555555555552,9178X,Campezo/Kanpezu,Campezo/Kanpezu,Araba/Álava,570,42 40 14,-02 20 46
-4.852777777777778,43.31111111111111,1179B,Cabrales,Cabrales,Asturias,458,43 18 40,-04 51 10
-4.748055555555555,43.420277777777777,1183X,Llanes,Llanes,Asturias,10,43 25 13,-04 44 53
-5.119166666666667,43.266666666666666,1186P,"Amieva, Panizales",Amieva,Asturias,370,43 16 00,-05 07 09
-5.396666666666667,43.37777777777778,1199X,Piloña,Piloña,Asturias,280,43 22 40,-05 23 48
-5.247222222222222,43.4925,1203D,Colunga,Colunga,Asturias,30,43 29 33,-05 14 50
-5.848611111111111,43.655833333333334,1210X,Cabo Peñas,Gozón,Asturias,100,43 39 21,-05 50 55
-6.044166666666666,43.566944444444445,1212E,Asturias Aeropuerto,Castrillón,Asturias,127,43 34 01,-06 02 39
-5.776388888888889,42.978611111111114,1221D,Puerto de Pajares,Lena,Asturias,1480,42 58 43,-05 46 35
-5.822777777777778,43.132777777777775,1223P,Pola de Lena,Lena,Asturias,370,43 07 58,-05 49 22
-5.476944444444444,43.095277777777781,1226X,Aller,Aller,Asturias,750,43 05 43,-05 28 37
-5.819166666666667,43.275,1234P,Mieres,Mieres,Asturias,170,43 16 30,-05 49 09
-5.874166666666667,43.353333333333332,1249X,Oviedo,Oviedo,Asturias,336,43 21 12,-05 52 27
-6.386666666666667,43.290277777777774,1272B,"Tineo, Soto de la Barca",Tineo,Asturias,280,43 17 25,-06 23 12
-6.256944444444445,43.1,1276F,Pola de Somiedo,Somiedo,Asturias,670,43 06 00,-06 15 25
-6.230833333333333,43.425,1279X,Salas,Salas,Asturias,240,43 25 30,-06 13 51
-6.47,43.569166666666668,1283U,Cabo Busto,Valdés,Asturias,60,43 34 09,-06 28 12
-6.4725,42.955277777777781,1302F,Degaña,Degaña,Asturias,1310,42 57 19,-06 28 21
-6.885,43.0275,1309C,"Ibias, San Antolin",Ibias,Asturias,780,43 01 39,-06 53 06
-6.673333333333334,43.465555555555554,1327A,"Villayón, Oneta",Villayón,Asturias,410,43 27 56,-06 40 24
-7.018888888888889,43.535277777777779,1331D,Figueras de Castropol,Castropol,Asturias,40,43 32 07,-07 01 08
-7.061111111111111,43.415555555555557,1341B,"Taramundi, Ouria",Taramundi,Asturias,340,43 24 56,-07 03 40
-6.414166666666667,42.994166666666665,1542,Puerto de Leitariegos,Cangas del Narcea,Asturias,1530,42 59 39,-06 24 51
-5.044166666666666,40.543333333333337,2430Y,Muñotello,Muñotello,Ávila,1178,40 32 36,-05 02 39
-4.68,40.659166666666664,2444,Ávila,Ávila,Ávila,1130,40 39 33,-04 40 48
-4.741944444444444,40.828888888888891,2453E,Gotarrendura,Gotarrendura,Ávila,920,40 49 44,-04 44 31
-4.73,41.07138888888889,2456B,Arevalo,Arévalo,Ávila,820,41 04 17,-04 43 48
-5.018611111111111,40.882222222222225,2512Y,Rivilla de Barajas,Rivilla de Barajas,Ávila,925,40 52 56,-05 01 07
-5.143055555555556,40.350555555555559,2811A,Navarredonda de Gredos,Navarredonda de Gredos,Ávila,1525,40 21 02,-05 08 35
-5.519166666666667,40.355277777777779,2828Y,Barco de Avila,"Barco de Ávila, El",Ávila,1012,40 21 19,-05 31 09
-5.012777777777778,40.339722222222221,3319D,Puerto El Pico,Villarejo del Valle,Ávila,1285,40 20 23,-05 00 46
-4.455833333333334,40.4675,3337U,Cebreros,Cebreros,Ávila,850,40 28 03,-04 27 21
-4.590833333333333,40.288611111111109,3391,Sotillo de la Adrada,Sotillo de la Adrada,Ávila,630,40 17 19,-04 35 27
-5.311388888888889,40.139166666666668,3422D,Candeleda,Candeleda,Ávila,350,40 08 21,-05 18 41
-5.062222222222222,39.169444444444444,4244X,Herrera del Duque,Herrera del Duque,Badajoz,447,39 10 10,-05 03 44
-5.5775,38.479722222222222,4260,Peraleda del Zaucejo,Peraleda del Zaucejo,Badajoz,542,38 28 47,-05 34 39
-5.546666666666667,38.715277777777779,4325X,Castuera,Castuera,Badajoz,502,38 42 55,-05 32 48
-5.461388888888889,39.103333333333332,4340,Navalvillar de Pela,Navalvillar de Pela,Badajoz,313,39 06 12,-05 27 41
-5.880555555555556,38.955555555555556,4358X,Don Benito,Don Benito,Badajoz,273,38 57 20,-05 52 50
-6.016944444444444,38.231666666666669,4386B,Llerena,Llerena,Badajoz,655,38 13 54,-06 01 01
-6.306666666666667,38.551666666666669,4395X,Villafranca de los Barros,Villafranca de los Barros,Badajoz,430,38 33 06,-06 18 24
-6.385555555555555,38.915833333333332,4410X,Mérida,Mérida,Badajoz,228,38 54 57,-06 23 08
-6.436666666666667,38.425833333333337,4427X,Zafra,Zafra,Badajoz,433,38 25 33,-06 26 12
-6.361111111111111,38.68888888888889,4436Y,Almendralejo,Almendralejo,Badajoz,371,38 41 20,-06 21 40
-6.813888888888889,38.883333333333333,4452,Badajoz Aeropuerto,Badajoz,Badajoz,185,38 53 00,-06 48 50
-6.995277777777778,39.181944444444447,4464X,Alburquerque,Alburquerque,Badajoz,283,39 10 55,-06 59 43
-6.600833333333333,39.176666666666669,4468X,Puebla de Obando,Puebla de Obando,Badajoz,392,39 10 36,-06 36 03
-7.008055555555556,38.8875,4478X,Badajoz,Badajoz,Badajoz,175,38 53 15,-07 00 29
-7.084444444444444,38.6975,4486X,Olivenza,Olivenza,Badajoz,275,38 41 51,-07 05 04
-7.281944444444444,38.484722222222224,4489X,Alconchel,Alconchel,Badajoz,170,38 29 05,-07 16 55
-6.922777777777778,38.476388888888891,4492E,Barcarrota,Barcarrota,Badajoz,387,38 28 35,-06 55 22
-7.158055555555555,38.37222222222222,4497X,Villanueva del Fresno,Villanueva del Fresno,Badajoz,247,38 22 20,-07 09 29
-6.271944444444444,38.081388888888888,4499X,Monesterio,Monesterio,Badajoz,771,38 04 53,-06 16 19
-6.311388888888889,38.208888888888886,4501X,Fuente de Cantos,Fuente de Cantos,Badajoz,602,38 12 32,-06 18 41
-6.765,38.298611111111114,4511C,Jerez de los Caballeros,Jerez de los Caballeros,Badajoz,381,38 17 55,-06 45 54
-6.661666666666667,38.178333333333335,4520X,Fregenal de la Sierra,Fregenal de la Sierra,Badajoz,586,38 10 42,-06 39 42
-5.678611111111111,38.2575,5473X,Azuaga,Azuaga,Badajoz,570,38 15 27,-05 40 43
1.519166666666667,41.416944444444447,0061X,Pontons,Pontons,Barcelona,630,41 25 01,01 31 09
1.676944444444445,41.330277777777781,0066X,Vilafranca del Penedès,Vilafranca del Penedès,Barcelona,174,41 19 49,01 40 37
1.8525,41.24388888888889,0073X,Sitges,Sitges,Barcelona,54,41 14 38,01 51 09
2.07,41.292777777777779,76,Barcelona Aeropuerto,"Prat de Llobregat, El",Barcelona,4,41 17 34,02 04 12
1.8575,42.101388888888891,0092X,Berga,Berga,Barcelona,690,42 06 05,01 51 27
1.8725,41.866388888888892,0106X,Balsareny,Balsareny,Barcelona,352,41 51 59,01 52 21
2.026666666666667,42.006944444444443,0114X,Prat de Lluçanès,Prats de Lluçanès,Barcelona,700,42 00 25,02 01 36
2.095277777777778,41.813333333333333,0120X,Moià,Moià,Barcelona,735,41 48 48,02 05 43
1.840277777777778,41.72,0149X,Manresa,Manresa,Barcelona,291,41 43 12,01 50 25
1.839166666666667,41.594444444444441,0158X,Monistrol de Montserrat,Monistrol de Montserrat,Barcelona,735,41 35 40,01 50 21
1.617777777777778,41.578888888888891,0171C,Igualada,Igualada,Barcelona,320,41 34 44,01 37 04
1.884722222222222,41.408055555555556,0194D,"Corbera, Pic d'Agulles",Corbera de Llobregat,Barcelona,651,41 24 29,01 53 05
2.2,41.390555555555558,0201D,Barcelona,Barcelona,Barcelona,25,41 23 26,02 12 00
2.173888888888889,41.375,0201X,"Barcelona, Museo Marítimo",Barcelona,Barcelona,37,41 22 30,02 10 26
2.168333333333333,41.612777777777779,0222X,Caldes de Montbui,Caldes de Montbui,Barcelona,175,41 36 46,02 10 06
2.103055555555556,41.523611111111109,0229I,Sabadell Aeropuerto,Sabadell,Barcelona,146,41 31 25,02 06 11
2.3625,41.505,0244X,Vilassar de Dalt,Vilassar de Dalt,Barcelona,60,41 30 18,02 21 45
2.54,41.5875,0252D,Arenys de Mar,Arenys de Mar,Barcelona,74,41 35 15,02 32 24
2.696944444444445,41.650833333333331,0255B,Santa Susana,Malgrat de Mar,Barcelona,40,41 39 03,02 41 49
2.431111111111111,41.76,0260X,Fogars de Montclús,Fogars de Montclús,Barcelona,929,41 45 36,02 25 52
2.3175,41.926111111111112,349,Sant Julià de Vilatorta,Sant Julià de Vilatorta,Barcelona,578,41 55 34,02 19 03
-2.510277777777778,43.376944444444447,1055B,Lekeitio,Lekeitio,Bizkaia,12,43 22 37,-02 30 37
-2.671111111111111,43.3425,1056K,Forua,Forua,Bizkaia,45,43 20 33,-02 40 16
-2.752777777777778,43.453888888888891,1057B,Machichaco,Bermeo,Bizkaia,93,43 27 14,-02 45 10
-3.021666666666667,43.375,1059X,Punta Galea,Getxo,Bizkaia,90,43 22 30,-03 01 18
-2.860277777777778,43.095555555555556,1064L,Orozko,Orozko,Bizkaia,270,43 05 44,-02 51 37
-2.644166666666667,43.099166666666669,1069Y,Abadiño,Abadiño,Bizkaia,747,43 05 57,-02 38 39
-2.706111111111111,43.202777777777776,1074C,Amorebieta--Etxano,Amorebieta-Etxano,Bizkaia,100,43 12 10,-02 42 22
-3.209722222222222,43.180555555555557,1078C,Balmaseda,Balmaseda,Bizkaia,210,43 10 50,-03 12 35
-3.104722222222222,43.203333333333333,1078I,Güeñes,Güeñes,Bizkaia,208,43 12 12,-03 06 17
-2.905833333333333,43.298055555555557,1082,Bilbao Aeropuerto,Loiu,Bizkaia,42,43 17 53,-02 54 21
-3.381944444444445,41.74583333333333,2106B,Coruña del Conde,Coruña del Conde,Burgos,955,41 44 45,-03 22 55
-3.742777777777778,41.665833333333332,2117D,Aranda de Duero,Aranda de Duero,Burgos,790,41 39 57,-03 44 34
-4.198888888888889,42.251111111111108,2290Y,Pedrosa del Príncipe,Pedrosa del Príncipe,Burgos,771,42 15 04,-04 11 56
-3.131666666666667,41.959722222222226,2298,Palacios de la Sierra,Palacios de la Sierra,Burgos,1080,41 57 35,-03 07 54
-3.110833333333333,42.146388888888886,2302N,Monterrubio de la Demanda,Monterrubio de la Demanda,Burgos,1197,42 08 47,-03 06 39
-3.767777777777778,42.105277777777779,2311Y,Villamayor de los Montes,Villamayor de los Montes,Burgos,882,42 06 19,-03 46 04
-3.621388888888889,42.356111111111112,2331X,Burgos Aeropuerto,Burgos,Burgos,891,42 21 22,-03 37 17
-3.957222222222222,42.951388888888886,9012E,Santa Gadea de Alfoz,Alfoz de Santa Gadea,Burgos,915,42 57 05,-03 57 26
-3.308888888888889,42.559444444444445,9031C,Briviesca,Briviesca,Burgos,730,42 33 34,-03 18 32
-3.482222222222222,42.92,9051,Medina de Pomar,Medina de Pomar,Burgos,580,42 55 12,-03 28 56
-2.944444444444445,42.669444444444444,9069C,Miranda de Ebro,Miranda de Ebro,Burgos,512,42 40 10,-02 56 40
-3.170277777777778,42.421111111111109,9111,Belorado,Belorado,Burgos,820,42 25 16,-03 10 13
-5.384166666666666,39.591666666666669,3386A,Navalvillar de Ibor,Navalvillar de Ibor,Cáceres,923,39 35 30,-05 23 03
-5.373333333333333,40.153888888888886,3423I,Madrigal de la Vera,Madrigal de la Vera,Cáceres,464,40 09 14,-05 22 24
-5.5825,39.945833333333333,3434X,Navalmoral de la Mata,Navalmoral de la Mata,Cáceres,269,39 56 45,-05 34 57
-5.784722222222222,40.111111111111114,3436D,Garganta de la Olla,Garganta la Olla,Cáceres,690,40 06 40,-05 47 05
-6.141666666666667,39.829444444444448,3448X,Serradilla,Serradilla,Cáceres,410,39 49 46,-06 08 30
-5.808333333333334,39.67,3455X,Jaraicejo,Jaraicejo,Cáceres,559,39 40 12,-05 48 30
-5.854166666666667,39.4825,3463X,Trujillo,Trujillo,Cáceres,503,39 28 57,-05 51 15
-6.338888888888889,39.471388888888889,3469A,Cáceres,Cáceres,Cáceres,394,39 28 17,-06 20 20
-6.376388888888889,39.790555555555557,3475X,Cañaveral,Cañaveral,Cáceres,373,39 47 26,-06 22 35
-6.239722222222222,40.408055555555556,3494U,Nuñomoral,Nuñomoral,Cáceres,470,40 24 29,-06 14 23
-6.165555555555556,40.19166666666667,3503,Guijo de Granadilla,Guijo de Granadilla,Cáceres,393,40 11 30,-06 09 56
-5.861111111111111,40.265,3504X,Hervás,Hervás,Cáceres,724,40 15 54,-05 51 40
-6.338888888888889,40.080833333333331,3512X,Montehermoso,Montehermoso,Cáceres,351,40 04 51,-06 20 20
-5.678333333333334,40.258611111111108,3514B,Tornavacas,Tornavacas,Cáceres,991,40 15 31,-05 40 42
-5.8325,40.12083333333333,3516X,Piornal,Piornal,Cáceres,1260,40 07 15,-05 49 57
-6.5575,40.003611111111113,3526X,Coria,Coria,Cáceres,313,40 00 13,-06 33 27
-6.411666666666667,40.255,3531X,Torrecilla de los Angeles,Torrecilla de los Ángeles,Cáceres,459,40 15 18,-06 24 42
-6.724444444444444,40.174722222222222,3536X,Hoyos,Hoyos,Cáceres,560,40 10 29,-06 43 28
-6.86,39.871388888888887,3540X,Zarza La Mayor,Zarza la Mayor,Cáceres,336,39 52 17,-06 51 36
-6.896111111111111,40.207222222222221,3547X,Valverde del Fresno,Valverde del Fresno,Cáceres,450,40 12 26,-06 53 46
-6.736388888888889,39.4275,3562X,Aliseda,Aliseda,Cáceres,321,39 25 39,-06 44 11
-6.745,39.618055555555557,3565X,Brozas,Brozas,Cáceres,425,39 37 05,-06 44 42
-7.247777777777777,39.416111111111114,3576X,Valencia de Alcántara,Valencia de Alcántara,Cáceres,445,39 24 58,-07 14 52
-5.333333333333333,39.455277777777781,4245X,Guadalupe,Guadalupe,Cáceres,660,39 27 19,-05 20 00
-5.368888888888889,39.314166666666665,4339X,Cañamero,Cañamero,Cáceres,590,39 18 51,-05 22 08
-5.710277777777778,39.282777777777781,4347X,Zorita,Zorita,Cáceres,413,39 16 58,-05 42 37
-6.231111111111111,39.19777777777778,4411C,Alcuescar,Alcuéscar,Cáceres,467,39 11 52,-06 13 52
-6.400555555555556,36.75,5906X,Chipiona,Chipiona,Cádiz,10,36 45 00,-06 24 02
-5.374166666666667,36.760555555555555,5911A,Grazalema,Grazalema,Cádiz,913,36 45 38,-05 22 27
-5.259444444444444,36.931666666666665,5919X,Olvera,Olvera,Cádiz,540,36 55 54,-05 15 34
-5.512222222222222,36.729444444444447,5941X,El Bosque,"Bosque, El",Cádiz,295,36 43 46,-05 30 44
-5.783333333333333,36.663888888888891,5950X,San José del Valle,San José del Valle,Cádiz,105,36 39 50,-05 47 00
-6.055833333333333,36.750555555555557,5960,Jerez de la Frontera Aeropuerto,Jerez de la Frontera,Cádiz,27,36 45 02,-06 03 21
-6.205555555555556,36.465555555555554,5972X,San Fernando,San Fernando,Cádiz,28,36 27 56,-06 12 20
-6.257777777777778,36.499722222222225,5973,Cádiz,Cádiz,Cádiz,2,36 29 59,-06 15 28
-5.920277777777778,36.406388888888891,5983X,Medina Sidonia,Medina-Sidonia,Cádiz,70,36 24 23,-05 55 13
-5.965,36.245555555555555,5995B,Vejer de la Frontera,Vejer de la Frontera,Cádiz,186,36 14 44,-05 57 54
-5.909722222222222,36.185,5996B,Barbate,Barbate,Cádiz,4,36 11 06,-05 54 35
-5.598888888888888,36.013888888888886,6001,Tarifa,Tarifa,Cádiz,32,36 00 50,-05 35 56
-5.394722222222223,36.435555555555553,6042I,Jimena de la Frontera,Jimena de la Frontera,Cádiz,50,36 26 08,-05 23 41
-5.284444444444444,36.273055555555558,6056X,San Roque,San Roque,Cádiz,1,36 16 23,-05 17 04
-3.469722222222222,43.396666666666668,1096X,"Barcena de Cicero, Treto",Bárcena de Cicero,Cantabria,10,43 23 48,-03 28 11
-3.831388888888889,43.429166666666667,1109,Santander Aeropuerto,Camargo,Cantabria,5,43 25 45,-03 49 53
-3.800555555555555,43.49111111111111,1111X,Santander,Santander,Cantabria,52,43 29 28,-03 48 02
-3.849444444444444,43.245555555555555,1124E,Villacarriedo,Villacarriedo,Cantabria,190,43 14 44,-03 50 58
-4.214166666666666,43.146944444444443,1135C,"Los Tojos, Bárcena Mayor","Tojos, Los",Cantabria,460,43 08 49,-04 12 51
-4.0275,43.358611111111109,1154H,"Torrelavega, Sierrapando",Torrelavega,Cantabria,110,43 21 31,-04 01 39
-4.392222222222222,43.393333333333331,1159,San Vicente de la Barquera,San Vicente de la Barquera,Cantabria,40,43 23 36,-04 23 32
-4.812777777777778,43.143888888888888,1167B,"Camaleño, Fuente De",Camaleño,Cantabria,1100,43 08 38,-04 48 46
-4.601666666666667,43.18277777777778,1174I,"Cillórigo de Liébana, Tama",Cillorigo de Liébana,Cantabria,260,43 10 58,-04 36 06
-4.124444444444444,43.377222222222223,1740,"Santillana del Mar, Altamira",Santillana del Mar,Cantabria,150,43 22 38,-04 07 28
-4.160555555555556,42.991944444444442,9001D,Reinosa,Campoo de Enmedio,Cantabria,870,42 59 31,-04 09 38
-4.032222222222222,42.80972222222222,9016X,"Valderredible, Cubillo de Ebro",Valderredible,Cantabria,770,42 48 35,-04 01 56
-3.933888888888889,42.80638888888889,9019B,"Valderredible, Polientes",Valderredible,Cantabria,720,42 48 23,-03 56 02
-0.485277777777778,39.795555555555552,8439X,Segorbe,Segorbe,Castelló/Castellón,400,39 47 44,-00 29 07
-0.546944444444444,40.087777777777781,8472A,Montanejos,Montanejos,Castelló/Castellón,601,40 05 16,-00 32 49
-0.256111111111111,40.433888888888887,8489X,Villafranca del Cid/Villafranca,Villafranca del Cid/Vilafranca,Castelló/Castellón,1130,40 26 02,-00 15 22
-0.169722222222222,40.227222222222224,8492X,Atzeneta del Maestrat,Atzeneta del Maestrat,Castelló/Castellón,420,40 13 38,-00 10 11
-0.071944444444444,39.957222222222221,8500A,"Castellón de la Plana, Almazora",Almazora/Almassora,Castelló/Castellón,42.9,39 57 26,-00 04 19
0.183611111111111,40.211388888888891,8503Y,Torreblanca,Torreblanca,Castelló/Castellón,35,40 12 41,00 11 01
0.165277777777778,40.69361111111111,8520X,La Pobla de Benifassà-Fredes,"Pobla de Benifassà, la",Castelló/Castellón,1165,40 41 37,00 09 55
0.429722222222222,40.554166666666667,8523X,Vinaròs,Vinaròs,Castelló/Castellón,90,40 33 15,00 25 47
-0.186666666666667,40.49861111111111,9563X,Castellfort,Castellfort,Castelló/Castellón,1220,40 29 55,-00 11 12
-5.346944444444444,35.888611111111111,5000C,Ceuta,Ceuta,Ceuta,87,35 53 19,-05 20 49
-3.215833333333333,39.390833333333333,4064Y,Alcazar de San Juan,Alcázar de San Juan,Ciudad Real,640,39 23 27,-03 12 57
-3.0075,39.169166666666669,4103X,Tomelloso,Tomelloso,Ciudad Real,662,39 10 09,-03 00 27
-3.920277777777778,38.989166666666669,4121,Ciudad Real,Ciudad Real,Ciudad Real,628,38 59 21,-03 55 13
-3.004444444444444,38.7375,4138Y,Villanueva de los Infantes,Villanueva de los Infantes,Ciudad Real,900,38 44 15,-03 00 16
-3.391388888888889,38.750555555555557,4147X,Valdepeñas,Valdepeñas,Ciudad Real,700,38 45 02,-03 23 29
-3.566666666666666,38.518055555555556,4148,Viso del Marqués,Viso del Marqués,Ciudad Real,778,38 31 05,-03 34 00
-4.291944444444445,38.898055555555558,4210Y,Abenójar,Abenójar,Ciudad Real,718,38 53 53,-04 17 31
-4.845277777777778,38.775277777777781,4300Y,Almadén,Almadén,Ciudad Real,535,38 46 31,-04 50 43
-4.059166666666667,38.668888888888887,5304Y,Puertollano,Puertollano,Ciudad Real,665,38 40 08,-04 03 33
-4.301666666666667,38.428888888888892,5341C,Fuencaliente,Fuencaliente,Ciudad Real,710,38 25 44,-04 18 06
-5.350555555555555,38.409444444444446,4263X,Valsequillo,Valsequillo,Córdoba,575,38 24 34,-05 21 02
-4.2725,38.186666666666667,5346X,Cardeña,Cardeña,Córdoba,720,38 11 12,-04 16 21
-4.330277777777778,38.013333333333335,5361X,Montoro,Montoro,Córdoba,155,38 00 48,-04 19 49
-4.796666666666667,38.020833333333336,5394X,Córdoba,Córdoba,Córdoba,525,38 01 15,-04 47 48
-4.846111111111111,37.844166666666666,5402,Córdoba Aeropuerto,Córdoba,Córdoba,90,37 50 39,-04 50 46
-4.207777777777777,37.484722222222224,5412X,Priego de Cordoba,Priego de Córdoba,Córdoba,550,37 29 05,-04 12 28
-4.353888888888889,37.556111111111115,5427X,Doña Mencía,Doña Mencía,Córdoba,650,37 33 22,-04 21 14
-4.462222222222223,37.810277777777777,5429X,"Córdoba, Prágdena",Córdoba,Córdoba,275,37 48 37,-04 27 44
-4.928611111111111,38.111111111111114,5459X,Espiel,Espiel,Córdoba,465,38 06 40,-04 55 43
-5.100555555555555,37.753055555555555,5470,Fuente Palmera,Fuente Palmera,Córdoba,120,37 45 11,-05 06 02
-4.547777777777778,37.230833333333337,5598X,Benamejí,Benamejí,Córdoba,465,37 13 51,-04 32 52
-4.686111111111111,37.481944444444444,5624X,Aguilar de la Frontera,Aguilar de la Frontera,Córdoba,305,37 28 55,-04 41 10
-4.763611111111111,37.638611111111111,5625X,La Rambla,"Rambla, La",Córdoba,200,37 38 19,-04 45 49
-2.076388888888889,40.571666666666665,3040Y,Beteta,Beteta,Cuenca,1214,40 34 18,-02 04 35
-3.021388888888889,40.011388888888888,3094B,Tarancón,Tarancón,Cuenca,808,40 00 41,-03 01 17
-2.806944444444444,40.06111111111111,4051Y,Alcázar del Rey,Alcázar del Rey,Cuenca,875,40 03 40,-02 48 25
-2.503333333333333,39.840277777777779,4075Y,Villares del Saz,Villares del Saz,Cuenca,870,39 50 25,-02 30 12
-2.494444444444444,39.515555555555558,4089A,Alberca de Zancara,"Alberca de Záncara, La",Cuenca,805,39 30 56,-02 29 40
-2.420833333333333,39.416944444444447,4090Y,San Clemente,San Clemente,Cuenca,728,39 25 01,-02 25 15
-2.76,39.656111111111109,4093Y,Osa de la Vega,Osa de la Vega,Cuenca,763,39 39 22,-02 45 36
-2.705555555555556,39.555277777777775,4095Y,Belmonte,Belmonte,Cuenca,745,39 33 19,-02 42 20
-2.131944444444445,40.06722222222222,8096,Cuenca,Cuenca,Cuenca,945,40 04 02,-02 07 55
-1.915277777777778,39.555555555555557,8155Y,Motilla del Palancar,Motilla del Palancar,Cuenca,830,39 33 20,-01 54 55
-1.503611111111111,40.103055555555557,8210Y,Salvacañete,Salvacañete,Cuenca,1160,40 06 11,-01 30 13
-1.4425,39.714444444444446,8245Y,Mira,Mira,Cuenca,815,39 42 52,-01 26 33
-1.796666666666667,43.326388888888886,1012P,Irún,Irun,Gipuzkoa,120,43 19 35,-01 47 48
-1.787222222222222,43.360555555555557,1014A,San Sebastián Aeropuerto,Hondarribia,Gipuzkoa,4,43 21 38,-01 47 14
-1.878888888888889,43.213055555555556,1021X,Renteria,Errenteria,Gipuzkoa,165,43 12 47,-01 52 44
-2.231944444444444,43.054722222222225,1025X,Beasain,Beasain,Gipuzkoa,255,43 03 17,-02 13 55
-2.184166666666667,43.058055555555555,1026X,Ordizia,Ordizia,Gipuzkoa,290,43 03 29,-02 11 03
-2.181111111111111,43.279444444444444,1036A,Zarautz,Zarautz,Gipuzkoa,60,43 16 46,-02 10 52
-2.336944444444444,43.051666666666669,1037X,Legazpia,Legazpi,Gipuzkoa,460,43 03 06,-02 20 13
-2.317777777777778,43.08,1037Y,Zumarraga,Urretxu,Gipuzkoa,420,43 04 48,-02 19 04
-2.267222222222222,43.1725,1038X,Azpeitia,Azpeitia,Gipuzkoa,180,43 10 21,-02 16 02
-2.251111111111111,43.30222222222222,1041A,Zumaia,Zumaia,Gipuzkoa,28,43 18 08,-02 15 04
-2.465555555555556,43.025,1048X,Aretxabaleta,Aretxabaleta,Gipuzkoa,308,43 01 30,-02 27 56
-2.495833333333334,43.138333333333335,1049N,Elgeta,Elgeta,Gipuzkoa,470,43 08 18,-02 29 45
-2.413333333333333,43.209444444444443,1050J,Elgoibar,Elgoibar,Gipuzkoa,120,43 12 34,-02 24 48
-2.397222222222222,43.31722222222222,1052A,Mutriku,Mutriku,Gipuzkoa,150,43 19 02,-02 23 50
2.805,41.676944444444445,0281Y,Blanes,Blanes,Girona,45,41 40 37,02 48 18
3.030833333333333,41.80777777777778,0284X,"Castell, Platja d'Aro",Castell-Platja d'Aro,Girona,14,41 48 28,03 01 51
2.364444444444445,42.258333333333333,0312X,Sant Pau de Segúries,Sant Pau de Segúries,Girona,863,42 15 30,02 21 52
2.102777777777778,42.316944444444445,0320I,Planoles,Planoles,Girona,1149,42 19 01,02 06 10
2.196111111111111,42.191388888888888,0324A,Ripoll,Ripoll,Girona,671,42 11 29,02 11 46
2.551111111111111,42.052777777777777,0360X,Les Planes d?Hostoles,"Planes d'Hostoles, Les",Girona,322,42 03 10,02 33 04
2.513333333333333,41.880833333333335,0363X,Sant Hilari,Sant Hilari Sacalm,Girona,810,41 52 51,02 30 48
2.763333333333333,41.911666666666669,367,Girona Aeropuerto,Vilobí d'Onyar,Girona,143,41 54 42,02 45 48
2.819444444444445,41.972222222222221,0370E,Girona,Girona,Girona,79,41 58 20,02 49 10
3.201388888888889,42.053888888888892,0385X,L?Estartit,Torroella de Montgrí,Girona,1,42 03 14,03 12 05
2.471944444444444,42.210555555555558,0394X,La Vall de Bianya,"Vall de Bianya, La",Girona,350,42 12 38,02 28 19
3.093055555555555,42.224722222222219,0411X,Castello d?Empuries,Castelló d'Empúries,Girona,4,42 13 29,03 05 35
3.006111111111111,42.39,0421X,Espolla,Espolla,Girona,94,42 23 24,03 00 22
2.960277777777778,42.259166666666665,0429X,Figueres,Figueres,Girona,47,42 15 33,02 57 37
1.939444444444444,42.3325,9585,La Molina,Alp,Girona,1703,42 19 57,01 56 22
-2.735,37.505833333333335,5047E,Baza,Baza,Granada,785,37 30 21,-02 44 06
-3.595277777777778,37.19,5515X,Granada-Cartuja,Granada,Granada,780,37 11 24,-03 35 43
-3.789444444444444,37.189722222222223,5530E,Granada Aeropuerto,Chauchina,Granada,567,37 11 23,-03 47 22
-4.152777777777778,37.161388888888887,5582A,Loja,Loja,Granada,585,37 09 41,-04 09 10
-3.4925,36.923055555555557,6258X,Lanjarón,Lanjarón,Granada,708,36 55 23,-03 29 33
-3.578611111111111,36.748333333333335,6267X,Salobreña,Salobreña,Granada,20,36 44 54,-03 34 43
-3.528888888888889,36.724166666666669,6268X,Motril,Motril,Granada,12,36 43 27,-03 31 44
-3.38,36.734166666666667,6272X,Castell del Ferro,Gualchos,Granada,235,36 44 03,-03 22 48
-3.071944444444445,37.001944444444447,6281X,Válor,Válor,Granada,950,37 00 07,-03 04 19
-1.878888888888889,40.841666666666669,3013,Molina de Aragón,Molina de Aragón,Guadalajara,1056,40 50 30,-01 52 44
-2.200555555555555,40.762777777777778,3021Y,Zaorejas,Zaorejas,Guadalajara,1230,40 45 46,-02 12 02
-2.953055555555555,40.407777777777781,3085Y,Pastrana,Pastrana,Guadalajara,920,40 24 28,-02 57 11
-3.301944444444445,41.003611111111113,3103,Retiendas,Retiendas,Guadalajara,910,41 00 13,-03 18 07
-2.618055555555555,41.086388888888891,3130C,Sigüenza,Sigüenza,Guadalajara,1005,41 05 11,-02 37 05
-2.76,40.985,3140Y,Mandayona,Mandayona,Guadalajara,990,40 59 06,-02 45 36
-3.15,40.630277777777778,3168D,Guadalajara,Guadalajara,Guadalajara,721,40 37 49,-03 09 00
-2.874166666666667,40.765277777777776,3209Y,Brihuega,Brihuega,Guadalajara,955,40 45 55,-02 52 27
-1.568333333333333,40.778611111111111,9377Y,El Pedregal,"Pedregal, El",Guadalajara,1185,40 46 43,-01 34 06
-6.976388888888889,37.981388888888887,4527X,Aroche,Aroche,Huelva,260,37 58 53,-06 58 35
-7.52,37.55361111111111,4541X,El Granado,"Granado, El",Huelva,60,37 33 13,-07 31 12
-7.395,37.194722222222225,4549Y,Ayamonte,Ayamonte,Huelva,2,37 11 41,-07 23 42
-7.083611111111111,37.218333333333334,4554X,Cartaya,Cartaya,Huelva,15,37 13 06,-07 05 01
-6.675,37.868611111111115,4560Y,Alajar,Alájar,Huelva,572,37 52 07,-06 40 30
-6.751944444444445,37.57138888888889,4575X,Valverde del Camino,Valverde del Camino,Huelva,273,37 34 17,-06 45 07
-6.942222222222222,37.731388888888887,4584X,El Cerro de Andévalo,"Cerro de Andévalo, El",Huelva,270,37 43 53,-06 56 32
-7.119444444444444,37.597777777777779,4589X,Alosno,Alosno,Huelva,276,37 35 52,-07 07 10
-6.63,37.67722222222222,4608X,El Campillo,"Campillo, El",Huelva,415,37 40 38,-06 37 48
-6.636666666666667,37.450833333333335,4622X,Villarrasa,Villarrasa,Huelva,145,37 27 03,-06 38 12
-6.909722222222222,37.28,4642E,"Huelva, Ronda Este",Huelva,Huelva,19,37 16 48,-06 54 35
-6.322222222222222,37.973611111111111,5769X,Cala,Cala,Huelva,618,37 58 25,-06 19 20
-6.443611111111111,36.988888888888887,5858X,Almonte,Almonte,Huelva,5,36 59 20,-06 26 37
-6.7375,37.101666666666667,5860E,"Moguer, El Arenosillo",Moguer,Huelva,41,37 06 06,-06 44 15
-0.516666666666667,42.746111111111112,9198A,Canfranc,Canfranc,Huesca,1160,42 44 46,-00 31 00
-0.546944444444444,42.578888888888891,9201K,Jaca,Jaca,Huesca,823,42 34 44,-00 32 49
-0.750555555555556,42.740555555555552,9207,"Valle de Hecho, Hecho",Valle de Hecho,Huesca,860,42 44 26,-00 45 02
-0.673055555555556,42.708888888888886,9208E,Aragüés del Puerto,Aragüés del Puerto,Huesca,1040,42 42 32,-00 40 23
-0.817222222222222,42.514166666666668,9211F,Bailo,Bailo,Huesca,722,42 30 51,-00 49 02
-0.355555555555556,42.512777777777778,9460X,Sabiñánigo,Sabiñánigo,Huesca,775,42 30 46,-00 21 20
-0.585833333333333,42.029444444444444,9491X,Almudévar,Almudévar,Huesca,390,42 01 46,-00 35 09
0.746944444444445,42.31861111111111,9751,Sopeira,Sopeira,Huesca,760,42 19 07,00 44 49
0.48,42.1125,9756X,Benabarre,Benabarre,Huesca,765,42 06 45,00 28 48
0.224722222222222,42.63,9784P,Bielsa,Bielsa,Huesca,990,42 37 48,00 13 29
0.138055555555556,42.421666666666667,9808X,Ainsa,Aínsa-Sobrarbe,Huesca,610,42 25 18,00 08 17
-0.111666666666667,42.626666666666665,9814A,Torla,Torla,Huesca,1020,42 37 36,-00 06 42
0.434166666666667,42.476944444444442,9843A,Seira,Seira,Huesca,825,42 28 37,00 26 03
0.466111111111111,42.201388888888886,9855E,Capella,Capella,Huesca,600,42 12 05,00 27 58
0.140555555555556,42.021388888888886,9866C,Barbastro,Barbastro,Huesca,305,42 01 17,00 08 26
-0.160833333333333,41.799166666666665,9894X,Sariñena,Sariñena,Huesca,300,41 47 57,-00 09 39
-0.326388888888889,42.083333333333336,9898,Huesca Aeropuerto,Alcalá del Obispo,Huesca,541,42 05 00,-00 19 35
-0.395,42.138888888888886,9901X,Huesca,Huesca,Huesca,463,42 08 20,-00 23 42
-0.333055555555556,41.773888888888891,9908X,Lanaja,Lanaja,Huesca,380,41 46 26,-00 19 59
0.187777777777778,41.619444444444447,9911X,Ballobar,Ballobar,Huesca,178,41 37 10,00 11 16
0.376944444444444,41.780833333333334,9918X,Tamarite de Litera,Tamarite de Litera,Huesca,218,41 46 51,00 22 37
0.355555555555556,41.524722222222223,9924X,Fraga,Fraga,Huesca,170,41 31 29,00 21 20
2.885833333333333,39.823333333333331,B013X,"Escorca, Lluc",Escorca,Illes Balears,490,39 49 24,02 53 09
2.512777777777778,39.689166666666665,B087X,Banyalbufar,Banyalbufar,Illes Balears,60,39 41 21,02 30 46
2.466388888888889,39.551388888888887,B158X,"Calvià, Son Vic Nou",Calvià,Illes Balears,50,39 33 05,02 27 59
2.625277777777778,39.553333333333335,B228,"Palma de Mallorca, Puerto",Palma,Illes Balears,3,39 33 12,02 37 31
2.643611111111111,39.642222222222223,B236C,"Palma de Mallorca, Universidad",Palma,Illes Balears,95,39 38 32,02 38 37
2.713055555555556,39.735,B248,"Sierra de Alfabia, Bunyola",Bunyola,Illes Balears,1030,39 44 06,02 42 47
2.736666666666667,39.560833333333335,B278,"Palma de Mallorca, Aeropuerto",Palma,Illes Balears,8,39 33 39,02 44 12
2.785,39.37972222222222,B301,"Llucmajor, Cap Blanc",Llucmajor,Illes Balears,113,39 22 47,02 47 06
2.891666666666667,39.495555555555555,B334X,Llucmajor,Llucmajor,Illes Balears,140,39 29 44,02 53 30
3.019166666666667,39.521666666666668,B346X,Porreres,Porreres,Illes Balears,120,39 31 18,03 01 09
3.064166666666666,39.405833333333334,B362X,"Campos, Can Sion",Campos,Illes Balears,40,39 24 21,03 03 51
3.011944444444445,39.351111111111109,B373X,"Campos, Salines Llevant",Campos,Illes Balears,3,39 21 04,03 00 43
3.271666666666667,39.414444444444442,B434X,Portocolom,Felanitx,Illes Balears,17,39 24 52,03 16 18
3.383611111111111,39.630277777777778,B496X,Son Servera,Son Servera,Illes Balears,25,39 37 49,03 23 01
3.351111111111111,39.688611111111108,B526X,Artà-Molí den Leu,Artà,Illes Balears,110,39 41 19,03 21 04
3.478055555555556,39.715555555555554,B569X,Capdepera,Capdepera,Illes Balears,66,39 42 56,03 28 41
3.104722222222222,39.796666666666667,B605X,"Muro, S'Albufera",Muro,Illes Balears,2,39 47 48,03 06 17
3.217777777777778,39.556944444444447,B614E,Manacor,Manacor,Illes Balears,95,39 33 25,03 13 04
3.002222222222222,39.643333333333331,B644B,Sineu,Sineu,Illes Balears,120,39 38 36,03 00 08
2.873888888888889,39.678055555555552,B662X,Binissalem,Binissalem,Illes Balears,105,39 40 41,02 52 26
3.016666666666667,39.749166666666667,B691Y,Sa Pobla,"Pobla, Sa",Illes Balears,40,39 44 57,03 01 00
3.024166666666666,39.876944444444447,B760X,Pollença,Pollença,Illes Balears,35,39 52 37,03 01 27
3.100277777777778,39.909444444444446,B780X,Pollença Aeródromo,Pollença,Illes Balears,2,39 54 34,03 06 01
4.086388888888889,39.990555555555552,B825B,Es Mercadal,"Mercadal, Es",Illes Balears,80,39 59 26,04 05 11
3.853888888888889,39.992777777777775,B860X,Ciutadella,Ciutadella de Menorca,Illes Balears,20,39 59 34,03 51 14
4.215555555555556,39.854722222222222,B893,Menorca Aeropuerto,Maó,Illes Balears,91,39 51 17,04 12 56
1.4925,39.056111111111115,B908X,Sant Joan de Labritja,Sant Joan de Labritja,Illes Balears,110,39 03 22,01 29 33
1.384444444444444,38.87638888888889,B954,"Eivissa/Ibiza, Aeropuerto",Sant Josep de sa Talaia,Illes Balears,6,38 52 35,01 23 04
-3.003611111111111,37.916111111111114,5038X,Cazorla,Cazorla,Jaén,813,37 54 58,-03 00 13
-3.563611111111111,37.780833333333334,5165X,Torres,Torres,Jaén,910,37 46 51,-03 33 49
-2.889722222222222,38.314722222222223,5181D,Arroyo del Ojanco,Arroyo del Ojanco,Jaén,580,38 18 53,-02 53 23
-2.638055555555555,38.489166666666669,5192,Villarrodrigo,Villarrodrigo,Jaén,862,38 29 21,-02 38 17
-2.998055555555556,38.175,5210X,Villanueva del Arzobispo,Villanueva del Arzobispo,Jaén,680,38 10 30,-02 59 53
-3.535277777777778,38.344444444444441,5246,Santa Elena,Santa Elena,Jaén,770,38 20 40,-03 32 07
-3.808888888888889,37.7775,5270B,Jaén,Jaén,Jaén,580,37 46 39,-03 48 32
-3.629444444444444,38.151111111111113,5279X,Linares,Linares,Jaén,515,38 09 04,-03 37 46
-3.7825,38.093055555555559,5281X,Bailén,Bailén,Jaén,345,38 05 35,-03 46 57
-4.063888888888889,38.023055555555558,5298X,Andújar,Andújar,Jaén,202,38 01 23,-04 03 50
-3.907777777777778,37.497777777777777,5406X,Alcalá La Real,Alcalá la Real,Jaén,915,37 29 52,-03 54 28
-2.968333333333333,42.255,9115X,Ezcaray,Ezcaray,La Rioja,1630,42 15 18,-02 58 06
-2.854722222222222,42.575277777777778,9121X,Haro,Haro,La Rioja,465,42 34 31,-02 51 17
-2.871111111111111,42.230833333333337,9136X,Anguiano,Anguiano,La Rioja,1006,42 13 51,-02 52 16
-2.726666666666667,42.414166666666667,9141V,Nájera,Nájera,La Rioja,500,42 24 51,-02 43 36
-2.639444444444444,42.482777777777777,9145Y,Cenicero,Cenicero,La Rioja,429,42 28 58,-02 38 22
-2.331111111111111,42.452222222222225,9170,Logroño Aeropuerto,Agoncillo,La Rioja,353,42 27 08,-02 19 52
-2.273333333333333,42.149444444444441,9188,Enciso,Enciso,La Rioja,855,42 08 58,-02 16 24
-1.789722222222222,42.184444444444445,9283Y,Alfaro,Alfaro,La Rioja,285,42 11 04,-01 47 23
-13.600277777777778,28.951944444444443,C029O,Lanzarote Aeropuerto,San Bartolomé,Las Palmas,14,28 57 07,-13 36 01
-13.489166666666666,29.14361111111111,C038N,Haría,Haría,Las Palmas,277,29 08 37,-13 29 21
-13.680833333333334,29.0425,C048W,Tinajo,Tinajo,Las Palmas,275,29 02 33,-13 40 51
-14.358055555555556,28.049166666666668,C229X,Pájara,Pájara,Las Palmas,7,28 02 57,-14 21 29
-14.023055555555555,28.208611111111111,C239N,Tuineje,Tuineje,Las Palmas,1,28 12 31,-14 01 23
-14.019166666666667,28.416666666666668,C248E,Antigua,Antigua,Las Palmas,252,28 25 00,-14 01 09
-13.863055555555556,28.444722222222222,C249I,Fuerteventura Aeropuerto,Puerto del Rosario,Las Palmas,25,28 26 41,-13 51 47
-13.863333333333333,28.740555555555556,C259X,"La Oliva, Puerto de Corralejo","Oliva, La",Las Palmas,6,28 44 26,-13 51 48
-15.58388888888889,27.977222222222224,C611E,Vega de San Mateo,Vega de San Mateo,Las Palmas,1702,27 58 38,-15 35 02
-15.598888888888888,28.006944444444443,C612F,"Tejeda, Cruz de Tejeda",Tejeda,Las Palmas,1514,28 00 25,-15 35 56
-15.712777777777777,28.101111111111113,C619X,Agaete,Agaete,Las Palmas,5,28 06 04,-15 42 46
-15.8075,28.001111111111111,C619Y,La Aldea de San Nicolás,"Aldea de San Nicolás, La",Las Palmas,13,28 00 04,-15 48 27
-15.6,27.926666666666666,C623I,"San Bartolome Tirajana, Cuevas del Pinar",San Bartolomé de Tirajana,Las Palmas,1220,27 55 36,-15 36 00
-15.645,27.856944444444444,C625O,"San Bartolome Tirajana, Lomo Pedro Alfonso",San Bartolomé de Tirajana,Las Palmas,806,27 51 25,-15 38 42
-15.77,27.908888888888889,C628B,La Aldea de San Nicolás,"Aldea de San Nicolás, La",Las Palmas,318,27 54 32,-15 46 12
-15.71111111111111,27.78,C629Q,"Mogán, Puerto Rico",Mogán,Las Palmas,10,27 46 48,-15 42 40
-15.764166666666666,27.816388888888888,C629X,"Mogán, Puerto",Mogán,Las Palmas,10,27 48 59,-15 45 51
-15.574166666666667,27.92,C635B,"San Bartolome Tirajana, Las Tirajanas",San Bartolomé de Tirajana,Las Palmas,960,27 55 12,-15 34 27
-15.575555555555555,27.758055555555554,C639M,"Maspalomas, C. Insular Turismo",San Bartolomé de Tirajana,Las Palmas,45,27 45 29,-15 34 32
-15.453333333333333,27.8125,C639U,"San Bartolome Tirajana, El Matorral",San Bartolomé de Tirajana,Las Palmas,41,27 48 45,-15 27 12
-15.453888888888889,27.9025,C648C,Agüimes,Agüimes,Las Palmas,306,27 54 09,-15 27 14
-15.457777777777778,27.9875,C648N,"Telde, Centro Forestal Doramas",Telde,Las Palmas,344,27 59 15,-15 27 28
-15.389444444444445,27.9225,C649I,Gran Canaria Aeropuerto,Ingenio,Las Palmas,24,27 55 21,-15 23 22
-15.377777777777778,27.986944444444443,C649R,"Telde, Melenara",Telde,Las Palmas,9,27 59 13,-15 22 40
-15.547222222222222,28.075277777777778,C656V,Teror,Teror,Las Palmas,683,28 04 31,-15 32 50
-15.453333333333333,28.067777777777778,C658X,"Las Palmas de Gran Canaria, Tafira","Palmas de Gran Canaria, Las",Las Palmas,269,28 04 04,-15 27 12
-15.41611111111111,28.089722222222221,C659H,"Las Palmas de Gran Canaria, San Cristobal","Palmas de Gran Canaria, Las",Las Palmas,55,28 05 23,-15 24 58
-15.565833333333334,28.066111111111113,C665T,Valleseco,Valleseco,Las Palmas,900,28 03 58,-15 33 57
-15.506944444444445,28.141666666666666,C669B,Arucas,Arucas,Las Palmas,86,28 08 30,-15 30 25
-15.595833333333333,27.735833333333332,C689E,Maspalomas,San Bartolomé de Tirajana,Las Palmas,6,27 44 09,-15 35 45
-13.510277777777778,29.229444444444443,C839X,Teguise,Teguise,Las Palmas,19,29 13 46,-13 30 37
-4.931666666666667,43.145277777777778,1178Y,"Posada de Valdeón, Soto",Posada de Valdeón,León,953,43 08 43,-04 55 54
-6.333888888888889,42.928888888888892,1541B,Villablino,Villablino,León,958,42 55 44,-06 20 02
-6.6,42.56388888888889,1549,Ponferrada,Ponferrada,León,534,42 33 50,-06 36 00
-6.673611111111111,42.766111111111108,1561I,Vega de Espinareda,Vega de Espinareda,León,770,42 45 58,-06 40 25
-5.0075,42.958333333333336,2624C,Riaño,Riaño,León,1090,42 57 30,-05 00 27
-5.193333333333333,42.62,2626Y,Cubillas de Rueda,Cubillas de Rueda,León,916,42 37 12,-05 11 36
-5.376944444444445,43.062222222222225,2630X,Puerto de San Isidro,Puebla de Lillo,León,1510,43 03 44,-05 22 37
-5.651111111111112,42.588333333333331,2661,León Aeropuerto,Valverde de la Virgen,León,916,42 35 18,-05 39 04
-5.504722222222222,42.295833333333334,2664B,Valencia de Don Juan,Valencia de Don Juan,León,788,42 17 45,-05 30 17
-5.870833333333334,42.885555555555555,2701D,"Sena de Luna, Miñera","Barrios de Luna, Los",León,1120,42 53 08,-05 52 15
-6.070833333333334,42.648333333333333,2728B,"Quintana del Castillo, Villameca",Quintana del Castillo,León,995,42 38 54,-06 04 15
-6.074444444444445,42.476666666666667,2734D,Astorga,Astorga,León,919,42 28 36,-06 04 28
-6.196666666666666,42.3775,2737E,Lagunas de Somoza,Val de San Lorenzo,León,1020,42 22 39,-06 11 48
-5.779722222222222,42.466388888888886,2742R,Bustillo del Páramo,Bustillo del Páramo,León,850,42 27 59,-05 46 47
1.693333333333333,42.362222222222222,9590,Martinet,Montellà i Martinet,Lleida,1038,42 21 44,01 41 36
1.463055555555556,42.354722222222222,9619,La Seo d?Urgell,"Seu d'Urgell, La",Lleida,677,42 21 17,01 27 47
1.569444444444444,42.230277777777779,9632X,Josa i Tuixén,Josa i Tuixén,Lleida,1190,42 13 49,01 34 10
1.311944444444444,42.154444444444444,9638D,Coll de Nargó,Coll de Nargó,Lleida,603,42 09 16,01 18 43
1.395555555555556,41.805833333333332,9647X,Torà,Torà,Lleida,435,41 48 21,01 23 44
1.108611111111111,41.881388888888885,9650X,Artesa de Segre,Artesa de Segre,Lleida,400,41 52 53,01 06 31
1.126111111111111,42.625,9657X,Esterri d?Àneu,Esterri d'Àneu,Lleida,940,42 37 30,01 07 34
0.990833333333333,42.466388888888886,9689X,Torre de Cabdella,"Torre de Cabdella, La",Lleida,1278,42 27 59,00 59 27
0.865277777777778,42.205277777777781,9698U,Talarn,Tremp,Lleida,807,42 12 19,00 51 55
0.907222222222222,42.066944444444445,9707,Llimiana,Llimiana,Lleida,515,42 04 01,00 54 26
1.220277777777778,41.67861111111111,9718X,Granyanella,Granyanella,Lleida,478,41 40 43,01 13 13
1.149444444444444,41.650555555555556,9720X,Tàrrega,Tàrrega,Lleida,388,41 39 02,01 08 58
0.756111111111111,41.873333333333335,9724X,Os de Balaguer,Os de Balaguer,Lleida,515,41 52 24,00 45 22
0.866666666666667,41.616944444444442,9729X,Mollerussa,Mollerussa,Lleida,250,41 37 01,00 52 00
0.595555555555556,41.62833333333333,9771C,Lleida,Lleida,Lleida,190,41 37 42,00 35 44
0.911666666666667,41.366944444444442,9772X,La Pobla de Cérvoles,"Pobla de Cérvoles, La",Lleida,671,41 22 01,00 54 42
0.678333333333333,41.413611111111109,9775X,El Soleràs,"Soleràs, El",Lleida,392,41 24 49,00 40 42
0.876944444444444,42.700277777777778,9990X,"Naut Aran, Arties",Naut Aran,Lleida,1161,42 42 01,00 52 37
0.689722222222222,42.776111111111113,9994X,Bossòst,Bossòst,Lleida,725,42 46 34,00 41 23
-7.0175,42.768611111111113,1297E,Cervantes,Cervantes,Lugo,1020,42 46 07,-07 01 03
-7.083055555555555,43.540555555555557,1342X,Ribadeo,Ribadeo,Lugo,43,43 32 26,-07 04 59
-7.361666666666666,43.43138888888889,1344X,Mondoñedo,Mondoñedo,Lugo,125,43 25 53,-07 21 42
-7.357222222222222,43.651111111111113,1347T,Burela,Burela,Lugo,80,43 39 04,-07 21 26
-7.4575,43.111388888888889,1505,Lugo Aeropuerto,Castro de Rei,Lugo,445,43 06 41,-07 27 27
-7.5525,42.998333333333335,1518A,Lugo,Lugo,Lugo,442,42 59 54,-07 33 09
-7.499444444444444,42.845277777777781,1521I,O Páramo,"Páramo, O",Lugo,403,42 50 43,-07 29 58
-7.185277777777777,42.863888888888887,1521X,Becerreá,Becerreá,Lugo,1080,42 51 50,-07 11 07
-7.191666666666666,42.588611111111113,1658,Folgoso do Courel,Folgoso do Courel,Lugo,612,42 35 19,-07 11 30
-7.510833333333333,42.531666666666666,1679A,Monforte de Lemos,Monforte de Lemos,Lugo,291,42 31 54,-07 30 39
-4.010555555555555,40.793055555555554,2462,Puerto de Navacerrada,Navacerrada,Madrid,1894,40 47 35,-04 00 38
-3.546111111111111,40.06722222222222,3100B,Aranjuez,Aranjuez,Madrid,540,40 04 02,-03 32 46
-3.888333333333333,40.889722222222225,3104Y,Rascafría,Rascafría,Madrid,1159,40 53 23,-03 53 18
-3.613611111111111,41.006944444444443,3110C,Buitrago del Lozoya,Buitrago del Lozoya,Madrid,1026,41 00 25,-03 36 49
-3.580277777777778,41.135555555555555,3111D,Somosierra,Somosierra,Madrid,1450,41 08 08,-03 34 49
-3.635,40.57,3125Y,San Sebastián de Los Reyes,San Sebastián de los Reyes,Madrid,671,40 34 12,-03 38 06
-3.711944444444445,40.561388888888892,3126Y,"Madrid, El Goloso",Madrid,Madrid,740,40 33 41,-03 42 43
-3.555555555555555,40.466666666666669,3129,Madrid Aeropuerto,Madrid,Madrid,609,40 28 00,-03 33 20
-3.289722222222222,40.528333333333336,3170Y,Alcala de Henares,Alcalá de Henares,Madrid,605,40 31 42,-03 17 23
-3.765,40.696111111111108,3191E,Colmenar Viejo,Colmenar Viejo,Madrid,1004,40 41 46,-03 45 54
-3.724166666666667,40.451666666666668,3194U,"Madrid, Ciudad Universitaria",Madrid,Madrid,664,40 27 06,-03 43 27
-3.813333333333333,40.448333333333331,3194Y,Pozuelo de Alarcón,Pozuelo de Alarcón,Madrid,665,40 26 54,-03 48 48
-3.678055555555555,40.411944444444444,3195,Madrid,Madrid,Madrid,667,40 24 43,-03 40 41
-3.311666666666667,40.24722222222222,3229Y,Tielmes,Tielmes,Madrid,594,40 14 50,-03 18 42
-4.141944444444444,40.706388888888888,3266A,Puerto Alto del León,Guadarrama,Madrid,1532,40 42 23,-04 08 31
-4.0175,40.659722222222221,3268C,Alpedrete,Alpedrete,Madrid,924,40 39 35,-04 01 03
-4.487222222222222,40.313055555555557,3330Y,Rozas de Puerto Real,Rozas de Puerto Real,Madrid,890,40 18 47,-04 29 14
-4.061111111111111,40.49666666666667,3343Y,Valdemorillo,Valdemorillo,Madrid,884,40 29 48,-04 03 40
-5.168055555555555,36.749444444444443,6032B,Ronda,Ronda,Málaga,770,36 44 58,-05 10 05
-5.386388888888889,36.544444444444444,6040X,Cortes de la Frontera,Cortes de la Frontera,Málaga,315,36 32 40,-05 23 11
-5.203055555555555,36.6325,6045X,Alpandeire,Alpandeire,Málaga,676,36 37 57,-05 12 11
-5.317777777777778,36.515277777777776,6050X,Gaucín,Gaucín,Málaga,545,36 30 55,-05 19 04
-5.26,36.37833333333333,6057X,Manilva,Manilva,Málaga,140,36 22 42,-05 15 36
-5.154722222222222,36.416666666666664,6058I,Estepona,Estepona,Málaga,15,36 25 00,-05 09 17
-5.024722222222223,36.543611111111112,6069X,Benahavis,Benahavís,Málaga,399,36 32 37,-05 01 29
-4.953055555555555,36.484444444444442,6076X,"Marbella, Puerto",Marbella,Málaga,6,36 29 04,-04 57 11
-4.740277777777778,36.483611111111109,6083X,Marbella,Marbella,Málaga,2,36 29 01,-04 44 25
-4.617777777777778,36.538611111111109,6084X,Fuengirola,Fuengirola,Málaga,12,36 32 19,-04 37 04
-4.515,36.620555555555555,6088X,Torremolinos,Torremolinos,Málaga,85,36 37 14,-04 30 54
-4.748333333333333,37.029444444444444,6106X,Antequera,Antequera,Málaga,408,37 01 46,-04 44 54
-4.696666666666666,36.854722222222222,6127X,Álora,Álora,Málaga,181,36 51 17,-04 41 48
-4.760555555555555,36.657777777777781,6143X,Coín,Coín,Málaga,219,36 39 28,-04 45 38
-4.481666666666666,36.717777777777776,6156X,"Málaga, Centro Meteorológico",Málaga,Málaga,54,36 43 04,-04 28 54
-4.419722222222222,36.716666666666669,6172O,"Málaga, Puerto",Málaga,Málaga,20,36 43 00,-04 25 11
-4.290277777777778,36.715833333333336,6175X,Rincon de la Victoria,Rincón de la Victoria,Málaga,7,36 42 57,-04 17 25
-4.095277777777778,36.775555555555556,6199B,Vélez-Málaga,Vélez-Málaga,Málaga,69,36 46 32,-04 05 43
-4.043888888888889,36.755833333333335,6201X,Algarrobo,Algarrobo,Málaga,35,36 45 21,-04 02 38
-3.957222222222222,36.726388888888891,6205X,Torrox,Torrox,Málaga,3,36 43 35,-03 57 26
-3.845277777777778,36.762777777777778,6213X,Nerja,Nerja,Málaga,169,36 45 46,-03 50 43
-4.741944444444444,37.132222222222225,6375X,Fuente de Piedra,Fuente de Piedra,Málaga,423,37 07 56,-04 44 31
-1.586944444444444,37.417222222222222,7002Y,Águilas,Águilas,Murcia,26,37 25 02,-01 35 13
-0.987777777777778,37.601111111111109,7012C,Cartagena,Cartagena,Murcia,17,37 36 04,-00 59 16
-1.167222222222222,37.726388888888891,7023X,Fuente Álamo de Murcia,Fuente Álamo de Murcia,Murcia,140,37 43 35,-01 10 02
-0.9675,37.738888888888887,7026X,Torre-Pacheco,Torre-Pacheco,Murcia,50,37 44 20,-00 58 03
-0.805833333333333,37.778333333333336,7031X,San Javier Aeropuerto,San Javier,Murcia,4,37 46 42,-00 48 21
-1.986388888888889,38.268333333333331,7080X,Moratalla,Moratalla,Murcia,955,38 16 06,-01 59 11
-1.877222222222222,38.1025,7119B,Caravaca de La Cruz,Caravaca de la Cruz,Murcia,643,38 06 09,-01 52 38
-1.702222222222222,38.234166666666667,7121A,Calasparra,Calasparra,Murcia,350,38 14 03,-01 42 08
-1.695277777777778,38.049166666666665,7127X,Bullas,Bullas,Murcia,640,38 02 57,-01 41 43
-1.335277777777778,38.458888888888886,7138B,Jumilla,Jumilla,Murcia,485,38 27 32,-01 20 07
-1.380555555555556,38.232777777777777,7145D,Cieza,Cieza,Murcia,265,38 13 58,-01 22 50
-1.305833333333333,38.128055555555555,7158X,Archena,Archena,Murcia,150,38 07 41,-01 18 21
-1.449166666666667,38.041388888888889,7172X,Mula,Mula,Murcia,255,38 02 29,-01 26 57
-1.170833333333333,38.001944444444447,7178I,Murcia,Murcia,Murcia,61,38 00 07,-01 10 15
-2.058333333333333,37.926111111111112,7195X,"Caravaca de La Cruz, Los Royos",Caravaca de la Cruz,Murcia,985,37 55 34,-02 03 30
-1.869722222222222,37.844722222222224,7203A,"Lorca, Zarcilla de Ramos",Lorca,Murcia,646,37 50 41,-01 52 11
-1.687222222222222,37.654722222222219,7209,Lorca,Lorca,Murcia,320,37 39 17,-01 41 14
-1.797222222222222,37.568055555555553,7211B,Puerto Lumbreras,Puerto Lumbreras,Murcia,445,37 34 05,-01 47 50
-1.502222222222222,37.761944444444445,7218X,Totana,Totana,Murcia,225,37 45 43,-01 30 08
-1.334722222222222,37.861666666666665,7227X,Alhama de Murcia,Alhama de Murcia,Murcia,157,37 51 42,-01 20 05
-1.158611111111111,38.138888888888886,7237E,Molina de Segura,Molina de Segura,Murcia,170,38 08 20,-01 09 31
-1.043888888888889,38.203888888888891,7250X,Abanilla,Abanilla,Murcia,200,38 12 14,-01 02 38
-1.159444444444444,38.601666666666667,7275C,Yecla,Yecla,Murcia,640,38 36 06,-01 09 34
-1.543055555555556,43.135833333333331,1002Y,"Baztan, Irurita",Baztan,Navarra,183,43 08 09,-01 32 35
-1.677222222222222,43.279444444444444,1010X,Bera,Bera,Navarra,45,43 16 46,-01 40 38
-1.950833333333333,43.085,1033X,Areso,Areso,Navarra,520,43 05 06,-01 57 03
-2.183888888888889,42.570277777777775,9171K,Los Arcos,"Arcos, Los",Navarra,470,42 34 13,-02 11 02
-2.055555555555555,42.374166666666667,9174,Sartaguda,Sartaguda,Navarra,310,42 22 27,-02 03 20
-1.300277777777778,42.896111111111111,9228J,Oroz-Betelu/Orotz-Betelu,Oroz-Betelu/Orotz-Betelu,Navarra,635,42 53 46,-01 18 01
-1.117222222222222,42.7175,9238X,Navascués/Nabaskoze,Navascués/Nabaskoze,Navarra,615,42 43 03,-01 07 02
-1.366388888888889,42.521388888888886,9245X,Cáseda,Cáseda,Navarra,440,42 31 17,-01 21 59
-1.655555555555555,42.489166666666669,9252X,Olite/Erriberri,Olite/Erriberri,Navarra,390,42 29 21,-01 39 20
-1.516944444444444,42.970555555555556,9257X,"Esteribar, Eugui",Esteribar,Navarra,615,42 58 14,-01 31 01
-1.495555555555556,42.701111111111111,9262P,Monreal/Elo,Monreal/Elo,Navarra,585,42 42 04,-01 29 44
-1.65,42.776944444444446,9263D,Pamplona Aeropuerto,Galar,Navarra,459,42 46 37,-01 39 00
-1.5325,42.776111111111113,9263I,"Aranguren, Ilundain",Aranguren,Navarra,572,42 46 34,-01 31 57
-1.831111111111111,42.9175,9274X,Irurtzun,Irurtzun,Navarra,455,42 55 03,-01 49 52
-1.8575,42.549444444444447,9280B,Larraga,Larraga,Navarra,375,42 32 58,-01 51 27
-1.711388888888889,42.206944444444446,9283X,Cadreita,Cadreita,Navarra,268,42 12 25,-01 42 41
-1.475277777777778,42.198611111111113,9294E,"Bardenas Reales, Base Aérea",,,295,42 11 55,-01 28 31
-1.690555555555556,41.958888888888886,9301X,Monteagudo,Monteagudo,Navarra,410,41 57 32,-01 41 26
-1.609444444444444,42.055555555555557,9302Y,Tudela,Tudela,Navarra,295,42 03 20,-01 36 34
-1.300833333333333,43.091111111111111,9995Y,Luzaide/Valcarlos,Luzaide/Valcarlos,Navarra,334,43 05 28,-01 18 03
-6.993055555555555,42.415555555555557,1583X,O Barco de Valdeorras,"Barco de Valdeorras, O",Ourense,315,42 24 56,-06 59 35
-7.2825,42.339444444444446,1631E,A Pobra de Trives,"Pobra de Trives, A",Ourense,840,42 20 22,-07 16 57
-7.383611111111111,42.26027777777778,1639X,Chandrexa de Queixa,Chandrexa de Queixa,Ourense,990,42 15 37,-07 23 01
-7.859722222222222,42.325277777777778,1690A,Ourense,Ourense,Ourense,143,42 19 31,-07 51 35
-8.278055555555556,42.468055555555559,1696O,Beariz,Beariz,Ourense,610,42 28 05,-08 16 41
-8.0925,42.421388888888892,1700X,"Carballiño, O","Carballiño, O",Ourense,400,42 25 17,-08 05 33
-8.129166666666666,42.3,1701X,Ribadavia,Ribadavia,Ourense,112,42 18 00,-08 07 45
-7.796111111111111,42.18277777777778,1706A,Allariz,Allariz,Ourense,492,42 10 58,-07 47 46
-7.733611111111111,42.079166666666666,1735X,Xinzo de Limia,Xinzo de Limia,Ourense,616,42 04 45,-07 44 01
-7.988888888888889,41.93416666666667,1738U,Muiños,Muíños,Ourense,730,41 56 03,-07 59 20
-7.183055555555556,42.027222222222221,2969U,A Gudiña,"Gudiña, A",Ourense,910,42 01 38,-07 10 59
-7.421944444444445,41.926666666666669,2978X,Verín,Verín,Ourense,380,41 55 36,-07 25 19
-4.52,42.870555555555555,2235U,Cervera de Pisuerga,Cervera de Pisuerga,Palencia,1140,42 52 14,-04 31 12
-4.276944444444444,42.797222222222224,2243A,Aguilar de Campoo,Aguilar de Campoo,Palencia,910,42 47 50,-04 16 37
-4.575,42.568888888888885,2276B,Villaeles de Valdavia,Villaeles de Valdavia,Palencia,908,42 34 08,-04 34 30
-4.713611111111112,42.893888888888888,2362C,"Velilla del Río Carrión, Camporredondo de Alba",Velilla del Río Carrión,Palencia,1575,42 53 38,-04 42 49
-4.617222222222222,42.350833333333334,2374X,Carrión de los Condes,Carrión de los Condes,Palencia,830,42 21 03,-04 37 02
-4.602777777777778,41.995555555555555,2400E,Autilla del Pino,Autilla del Pino,Palencia,874,41 59 44,-04 36 10
-4.560555555555555,42.009444444444448,2401X,Palencia,Palencia,Palencia,736,42 00 34,-04 33 38
-4.851111111111111,42.523611111111109,2568D,"Santervás de la Vega, Villapún",Santervás de la Vega,Palencia,985,42 31 25,-04 51 04
-8.257777777777777,42.700833333333335,1466A,Silleda,Silleda,Pontevedra,435,42 42 03,-08 15 28
-8.501944444444444,42.69361111111111,1468X,A Estrada,"Estrada, A",Pontevedra,269,42 41 37,-08 30 07
-8.774722222222222,42.584722222222226,1477V,VilagarcÍa de Arousa,Vilagarcía de Arousa,Pontevedra,32,42 35 05,-08 46 29
-8.615833333333333,42.438333333333333,1484C,Pontevedra,Pontevedra,Pontevedra,108,42 26 18,-08 36 57
-8.451111111111111,42.406944444444441,1489A,A Lama,"Lama, A",Pontevedra,395,42 24 25,-08 27 04
-8.623888888888889,42.239444444444445,1495,Vigo Aeropuerto,Redondela,Pontevedra,261,42 14 22,-08 37 26
-8.724166666666667,42.230555555555554,1496X,Vigo,Vigo,Pontevedra,120,42 13 50,-08 43 27
-8.281111111111111,42.218055555555559,1719,A Cañiza,"Cañiza, A",Pontevedra,560,42 13 05,-08 16 52
-8.492777777777778,42.182222222222222,1723X,"Ponteareas, Canedo",Ponteareas,Pontevedra,90,42 10 56,-08 29 34
-8.8475,41.943888888888885,1730E,O Rosal,"Rosal, O",Pontevedra,55,41 56 38,-08 50 51
-5.643333333333334,40.675555555555555,2847X,Pedrosillo de Los Aires,Pedrosillo de los Aires,Salamanca,865,40 40 32,-05 38 36
-5.366111111111111,40.732222222222219,2863C,Pedraza de Alba,Pedraza de Alba,Salamanca,897,40 43 56,-05 21 58
-5.498333333333333,40.959444444444443,2867,Salamanca Aeropuerto,Calvarrasa de Abajo,Salamanca,790,40 57 34,-05 29 54
-5.662222222222223,40.9575,2870,Salamanca,Salamanca,Salamanca,775,40 57 27,-05 39 44
-5.779722222222222,40.903611111111111,2873X,Barbadillo,Barbadillo,Salamanca,817,40 54 13,-05 46 47
-6.100277777777777,41.200555555555553,2883R,Ledesma,Ledesma,Salamanca,775,41 12 02,-06 06 01
-6.4625,41.263055555555553,2891A,Villarino de los Aires,Villarino de los Aires,Salamanca,690,41 15 47,-06 27 45
-6.202777777777778,40.786111111111111,2914C,Boadilla Fuente San Esteban,"Fuente de San Esteban, La",Salamanca,785,40 47 10,-06 12 10
-6.437777777777778,41.011388888888888,2916A,Vitigudino,Vitigudino,Salamanca,769,41 00 41,-06 26 16
-6.223611111111111,40.569444444444443,2918Y,El Maíllo,"Maíllo, El",Salamanca,1027,40 34 10,-06 13 25
-6.608888888888889,40.851388888888891,2926B,Bañobárez,Bañobárez,Salamanca,748,40 51 05,-06 36 32
-6.812777777777778,40.296666666666667,2930Y,Navasfrías,Navasfrías,Salamanca,880,40 17 48,-06 48 46
-6.576944444444445,40.485,2945A,El Bodón Base Aérea,"Bodón, El",Salamanca,805,40 29 06,-06 34 37
-6.6,40.635,2946X,Saelices El Chico,Saelices el Chico,Salamanca,680,40 38 06,-06 36 00
-3.507222222222222,41.372777777777777,2135A,Fresno de Cantiespino,Fresno de Cantespino,Segovia,993,41 22 22,-03 30 26
-3.785833333333333,41.464444444444446,2140A,Aldeanueva de Serrezuela,Aldeanueva de la Serrezuela,Segovia,1135,41 27 52,-03 47 09
-3.475277777777778,41.191944444444445,2150H,"La Pinilla, estación de esquí",Cerezo de Arriba,Segovia,1860,41 11 31,-03 28 31
-3.790277777777778,41.13388888888889,2182C,Pedraza,Pedraza,Segovia,1107,41 08 02,-03 47 25
-4.265555555555555,41.383611111111108,2192C,Cuéllar,Cuéllar,Segovia,795,41 23 01,-04 15 56
-4.126388888888889,40.945277777777775,2465,Segovia,Segovia,Segovia,1005,40 56 43,-04 07 35
-4.210555555555556,40.718055555555559,2471Y,San Rafael,"Espinar, El",Segovia,1260,40 43 05,-04 12 38
-4.375833333333333,41.12638888888889,2482B,Miguelañez,Migueláñez,Segovia,870,41 07 35,-04 22 33
-4.77,37.194444444444443,5612B,La Roda de Andalucía,"Roda de Andalucía, La",Sevilla,410,37 11 40,-04 46 12
-4.826944444444445,37.270277777777778,5612X,Lora de Estepa,Lora de Estepa,Sevilla,450,37 16 13,-04 49 37
-5.085277777777778,37.516111111111108,5641X,Écija,Écija,Sevilla,130,37 30 58,-05 05 07
-5.371388888888889,37.786666666666669,5654X,La Puebla de los Infantes,"Puebla de los Infantes, La",Sevilla,200,37 47 12,-05 22 17
-5.433055555555556,37.49722222222222,5656,Fuentes de Andalucía,Fuentes de Andalucía,Sevilla,165,37 29 50,-05 25 59
-5.740555555555556,37.565555555555555,5702X,Carmona,Carmona,Sevilla,50,37 33 56,-05 44 26
-5.769722222222223,37.926388888888887,5704B,Cazalla de la Sierra,Cazalla de la Sierra,Sevilla,550,37 55 35,-05 46 11
-5.819166666666667,38.099444444444444,5726X,Guadalcanal,Guadalcanal,Sevilla,720,38 05 58,-05 49 09
-5.879166666666666,37.416666666666664,5783,Sevilla Aeropuerto,Sevilla,Sevilla,34,37 25 00,-05 52 45
-6.004444444444444,37.36611111111111,5790Y,"Sevilla, Tablada",Sevilla,Sevilla,9,37 21 58,-06 00 16
-6.334166666666667,37.36,5835X,Carrión de los Céspedes,Carrión de los Céspedes,Sevilla,76,37 21 36,-06 20 03
-5.846666666666667,36.953333333333333,5891X,Las Cabezas de San Juan,"Cabezas de San Juan, Las",Sevilla,105,36 57 12,-05 50 48
-5.1125,37.243333333333332,5998X,Osuna,Osuna,Sevilla,255,37 14 36,-05 06 45
-2.782777777777778,41.967777777777776,2005Y,Vinuesa,Vinuesa,Soria,1197,41 58 04,-02 46 58
-2.494166666666667,41.99583333333333,2017Y,"La Póveda de Soria, Barriomartín","Póveda de Soria, La",Soria,1260,41 59 45,-02 29 39
-2.483055555555556,41.775,2030,Soria,Soria,Soria,1082,41 46 30,-02 28 59
-2.5075,41.600555555555559,2044B,Lubia,Cubo de la Solana,Soria,1100,41 36 02,-02 30 27
-2.420277777777778,41.419444444444444,2048A,Morón de Almazán,Morón de Almazán,Soria,978,41 25 10,-02 25 13
-2.783333333333333,41.349722222222219,2059B,La Riba de Escalote,"Riba de Escalote, La",Soria,1042,41 20 59,-02 47 00
-3.046944444444444,41.721944444444446,2084Y,Ucero,Ucero,Soria,960,41 43 19,-03 02 49
-3.086944444444444,41.589444444444446,2092,Burgo de Osma,Burgo de Osma-Ciudad de Osma,Soria,932,41 35 22,-03 05 13
-3.251388888888889,41.37361111111111,2096B,Liceras,Liceras,Soria,1150,41 22 25,-03 15 05
-1.976666666666667,41.775555555555556,2296A,Ólvega,Ólvega,Soria,1039,41 46 32,-01 58 36
-2.230833333333333,42.026388888888889,9287A,San Pedro Manrique,San Pedro Manrique,Soria,1096,42 01 35,-02 13 51
-2.293055555555556,41.216388888888886,9344C,Arcos de Jalón,Arcos de Jalón,Soria,863,41 12 59,-02 17 35
-2.140277777777778,41.574722222222221,9352A,Almazul,Almazul,Soria,1000,41 34 29,-02 08 25
-17.985555555555557,28.760833333333334,C117A,Puntagorda,Puntagorda,Santa Cruz de Tenerife,684,28 45 39,-17 59 08
-17.936944444444446,28.674722222222222,C117Z,Tijarafe,Tijarafe,Santa Cruz de Tenerife,733,28 40 29,-17 56 13
-17.853333333333332,28.65388888888889,C126A,El Paso,"Paso, El",Santa Cruz de Tenerife,844,28 39 14,-17 51 12
-17.915277777777778,28.595833333333335,C129Z,Tazacorte,Tazacorte,Santa Cruz de Tenerife,62,28 35 45,-17 54 55
-17.755,28.633055555555554,C139E,La Palma Aeropuerto,Breña Baja,Santa Cruz de Tenerife,33,28 37 59,-17 45 18
-17.7825,28.805,C148F,San Andrés y Sauces,San Andrés y Sauces,Santa Cruz de Tenerife,362,28 48 18,-17 46 57
-17.249166666666667,28.106944444444444,C314Z,"Vallehermoso, Alto Igualero",Vallehermoso,Santa Cruz de Tenerife,1475,28 06 25,-17 14 57
-17.263333333333332,28.110833333333332,C315P,"Vallehermoso, Chipude C.F.",Vallehermoso,Santa Cruz de Tenerife,1242,28 06 39,-17 15 48
-17.213055555555556,28.178888888888888,C317B,Agulo,Agulo,Santa Cruz de Tenerife,765,28 10 44,-17 12 47
-17.306666666666665,28.054444444444446,C319W,"Vallehermoso, Dama",Vallehermoso,Santa Cruz de Tenerife,190,28 03 16,-17 18 24
-17.194166666666668,28.163611111111113,C328W,Hermigua,Hermigua,Santa Cruz de Tenerife,252,28 09 49,-17 11 39
-17.111388888888889,28.089722222222221,C329Z,San Sebastián de la Gomera,San Sebastián de la Gomera,Santa Cruz de Tenerife,15,28 05 23,-17 06 41
-16.62638888888889,28.224166666666665,C406G,"La Orotava, Cañadas Teide","Orotava, La",Santa Cruz de Tenerife,2150,28 13 27,-16 37 35
-16.711111111111112,28.081388888888888,C419X,Adeje,Adeje,Santa Cruz de Tenerife,130,28 04 53,-16 42 40
-16.483611111111109,28.181111111111111,C428T,Arico,Arico,Santa Cruz de Tenerife,418,28 10 52,-16 29 01
-16.560833333333335,28.0475,C429I,Tenerife Sur Aeropuerto,Granadilla de Abona,Santa Cruz de Tenerife,64,28 02 51,-16 33 39
-16.499444444444446,28.308888888888887,C430E,Izaña,Güímar,Santa Cruz de Tenerife,2371,28 18 32,-16 29 58
-16.401388888888889,28.358888888888888,C438N,Candelaria,Candelaria,Santa Cruz de Tenerife,463,28 21 32,-16 24 05
-16.280555555555555,28.526666666666667,C446G,"San Cristóbal de La Laguna,Llano de los Loros",San Cristóbal de La Laguna,Santa Cruz de Tenerife,868,28 31 36,-16 16 50
-16.329444444444444,28.4775,C447A,Tenerife Norte Aeropuerto,San Cristóbal de La Laguna,Santa Cruz de Tenerife,632,28 28 39,-16 19 46
-16.255277777777778,28.463333333333335,C449C,Sta.Cruz de Tenerife,Santa Cruz de Tenerife,Santa Cruz de Tenerife,35,28 27 48,-16 15 19
-16.195555555555554,28.508055555555554,C449F,Anaga,Santa Cruz de Tenerife,Santa Cruz de Tenerife,19,28 30 29,-16 11 44
-16.454722222222223,28.434722222222224,C457I,La Victoria de Acentejo,"Victoria de Acentejo, La",Santa Cruz de Tenerife,567,28 26 05,-16 27 17
-16.42,28.496388888888887,C458A,Tacoronte,Tacoronte,Santa Cruz de Tenerife,310,28 29 47,-16 25 12
-16.548055555555557,28.418055555555554,C459Z,Puerto de la Cruz,Puerto de la Cruz,Santa Cruz de Tenerife,25,28 25 05,-16 32 53
-16.629722222222224,28.389722222222222,C468B,San Juan de la Rambla,San Juan de la Rambla,Santa Cruz de Tenerife,370,28 23 23,-16 37 47
-16.8175,28.378611111111113,C469N,Los Silos,"Silos, Los",Santa Cruz de Tenerife,28,28 22 43,-16 49 03
-17.978055555555557,27.718888888888888,C916Q,"El Pinar, Depósito","Pinar de El Hierro, El",Santa Cruz de Tenerife,948,27 43 08,-17 58 41
-18.115,27.725277777777777,C917E,"El Pinar, La Dehesa","Pinar de El Hierro, El",Santa Cruz de Tenerife,715,27 43 31,-18 06 54
-17.96,27.76861111111111,C925F,Valverde,Valverde,Santa Cruz de Tenerife,1070,27 46 07,-17 57 36
-17.888888888888889,27.818888888888889,C929I,Hierro Aeropuerto,Valverde,Santa Cruz de Tenerife,32,27 49 08,-17 53 20
-18.106666666666666,27.756388888888889,C939T,"Frontera, Sabinosa",Frontera,Santa Cruz de Tenerife,20,27 45 23,-18 06 24
0.963333333333333,41.213888888888889,0009X,Alforja,Alforja,Tarragona,406,41 12 50,00 57 48
1.178888888888889,41.149722222222223,0016A,Reus Aeropuerto,Constantí,Tarragona,71,41 08 59,01 10 44
1.260833333333333,41.293055555555554,0034X,Valls,Valls,Tarragona,229,41 17 35,01 15 39
1.249166666666667,41.123888888888892,0042Y,Tarragona,Tarragona,Tarragona,60,41 07 26,01 14 57
1.309444444444444,41.557222222222222,9726E,Llorac,Llorac,Tarragona,660,41 33 26,01 18 34
0.311666666666667,40.953055555555558,9946X,Horta de Sant Joan,Horta de Sant Joan,Tarragona,500,40 57 11,00 18 42
0.353333333333333,41.17722222222222,9947X,La Pobla de Massaluca,"Pobla de Massaluca, La",Tarragona,365,41 10 38,00 21 12
0.735277777777778,41.249444444444443,9961X,Cabacés,Cabacés,Tarragona,360,41 14 58,00 44 07
0.601666666666667,41.001111111111108,9975X,Rasquera,Rasquera,Tarragona,186,41 00 04,00 36 06
0.493333333333333,40.820277777777775,9981A,Tortosa,Roquetes,Tarragona,47,40 49 13,00 29 36
0.81,40.69916666666667,9987P,Sant Jaume d'Enveja,Sant Jaume d'Enveja,Tarragona,1,40 41 57,00 48 36
-1.441388888888889,40.419722222222219,8354X,Albarracín,Albarracín,Teruel,1130,40 25 11,-01 26 29
-1.124166666666667,40.350555555555559,8368U,Teruel,Teruel,Teruel,900,40 21 02,-01 07 27
-1.411666666666667,40.236111111111114,8376,Jabaloyas,Jabaloyas,Teruel,1430,40 14 10,-01 24 42
-0.849444444444444,40.430555555555557,8458X,Cedrillas,Cedrillas,Teruel,1380,40 25 50,-00 50 58
-0.454444444444444,40.3625,8486X,Mosqueruela,Mosqueruela,Teruel,1515,40 21 45,-00 27 16
-1.320833333333333,40.56666666666667,9374X,"Teruel, Santa Eulalia del Campo",Santa Eulalia,Teruel,1000,40 34 00,-01 19 15
-1.293333333333333,40.926111111111112,9381I,Calamocha,Calamocha,Teruel,890,40 55 34,-01 17 36
-1.0875,40.99527777777778,9436X,Fonfría,Fonfría,Teruel,1255,40 59 43,-01 05 15
-0.805555555555556,41.031111111111109,9513X,Muniesa,Muniesa,Teruel,800,41 01 52,-00 48 20
-0.793055555555556,40.828611111111108,9531X,Montalbán,Montalbán,Teruel,895,40 49 43,-00 47 35
-0.441944444444444,41.171944444444442,9546B,Hijar,Híjar,Teruel,305,41 10 19,-00 26 31
-0.407777777777778,40.974444444444444,9550C,Andorra,Andorra,Teruel,762,40 58 28,-00 24 28
-0.315277777777778,40.798333333333332,9561X,Castellote,Castellote,Teruel,755,40 47 54,-00 18 55
-0.237777777777778,40.946666666666665,9569A,Calanda,Calanda,Teruel,480,40 56 48,-00 14 16
-0.141666666666667,41.058055555555555,9573X,Alcañiz,Alcañiz,Teruel,334,41 03 29,-00 08 30
0.146111111111111,40.873333333333335,9935X,Valderrobres,Valderrobres,Teruel,482,40 52 24,00 08 46
-1.494444444444444,40.921388888888892,9998X,Bello,Bello,Teruel,1006,40 55 17,-01 29 40
-3.496111111111111,39.935,3099Y,Ocaña,Ocaña,Toledo,733,39 56 06,-03 29 46
-3.505833333333333,39.696111111111108,3245Y,Tembleque,Tembleque,Toledo,635,39 41 46,-03 30 21
-3.780555555555555,39.736944444444447,3254Y,Mora,Mora,Toledo,717,39 44 13,-03 46 50
-4.045277777777778,39.884722222222223,3260B,Toledo,Toledo,Toledo,515,39 53 05,-04 02 43
-4.350555555555555,39.546944444444442,3298X,San Pablo de los Montes,San Pablo de los Montes,Toledo,917,39 32 49,-04 21 02
-4.476944444444444,39.630555555555553,3305Y,Navahermosa,Navahermosa,Toledo,750,39 37 50,-04 28 37
-4.680555555555555,40.108055555555552,3362Y,Castillo de Bayuela,Castillo de Bayuela,Toledo,560,40 06 29,-04 40 50
-4.863333333333333,39.958611111111111,3365A,Talavera de la Reina,Talavera de la Reina,Toledo,372,39 57 31,-04 51 48
-5.114444444444445,39.993333333333332,3427Y,Oropesa,Oropesa,Toledo,345,39 59 36,-05 06 52
-3.528333333333333,39.491944444444442,4067,Madridejos,Madridejos,Toledo,690,39 29 31,-03 31 42
-5.020277777777777,39.44638888888889,4236Y,Puerto del Rey,Sevilleja de la Jara,Toledo,620,39 26 47,-05 01 13
-0.095833333333333,38.928888888888892,8058X,Oliva,Oliva,València/Valencia,5,38 55 44,-00 05 45
-0.304722222222222,39.016944444444448,8072Y,Barx,Barx,València/Valencia,340,39 01 01,-00 18 17
-1.094444444444445,39.208333333333336,8193E,Jalance,Jalance,València/Valencia,372,39 12 30,-01 05 40
-0.79,39.133611111111108,8270X,Bicorp,Bicorp,València/Valencia,305,39 08 01,-00 47 24
-0.607777777777778,38.829444444444448,8283X,Ontinyent,Ontinyent,València/Valencia,350,38 49 46,-00 36 28
-0.882777777777778,38.921111111111109,8290X,Enguera,Enguera,València/Valencia,740,38 55 16,-00 52 58
-0.523611111111111,39.001666666666665,8293X,Xàtiva,Xàtiva,València/Valencia,88,39 00 06,-00 31 25
-0.445833333333333,39.113333333333337,8300X,Carcaixent,Carcaixent,València/Valencia,25,39 06 48,-00 26 45
-1.244722222222222,39.575277777777778,8309X,Utiel,Utiel,València/Valencia,761,39 34 31,-01 14 41
-0.856944444444444,39.450833333333335,8319X,Buñol,Buñol,València/Valencia,585,39 27 03,-00 51 25
-0.371944444444444,39.18472222222222,8325X,Polinyà de Xúquer,Polinyà de Xúquer,València/Valencia,12,39 11 05,-00 22 19
-0.624722222222222,39.392222222222223,8337X,Turís,Turís,València/Valencia,186,39 23 32,-00 37 29
-1.283611111111111,40.060555555555553,8381X,Ademuz,Ademuz,València/Valencia,705,40 03 38,-01 17 01
-0.993055555555556,39.75333333333333,8395X,Chelva,Chelva,València/Valencia,515,39 45 12,-00 59 35
-0.653888888888889,39.663888888888891,8409X,Lliria,Llíria,València/Valencia,198,39 39 50,-00 39 14
-0.474444444444444,39.485277777777775,8414A,Valencia Aeropuerto,Manises,València/Valencia,69,39 29 07,-00 28 28
-0.366388888888889,39.480555555555554,8416Y,Valencia,Valencia,València/Valencia,11,39 28 50,-00 21 59
-4.118333333333333,41.593055555555559,2166Y,Peñafiel,Peñafiel,Valladolid,756,41 35 35,-04 07 06
-4.405555555555556,41.611944444444447,2172Y,Sardón de Duero,Sardón de Duero,Valladolid,740,41 36 43,-04 24 20
-4.754444444444444,41.640833333333333,2422,Valladolid,Valladolid,Valladolid,735,41 38 27,-04 45 16
-4.691944444444444,41.28,2503B,"Olmedo, Depósito de Agua",Olmedo,Valladolid,786,41 16 48,-04 41 31
-4.686944444444444,41.325833333333335,2503X,Olmedo,Olmedo,Valladolid,740,41 19 33,-04 41 13
-4.965277777777778,41.424444444444447,2507Y,Rueda,Rueda,Valladolid,715,41 25 28,-04 57 55
-4.939722222222223,41.172777777777775,2517A,Fuente el Sol,Fuente el Sol,Valladolid,755,41 10 22,-04 56 23
-4.995277777777778,42.086111111111109,2593D,Villalón de Campos,Villalón de Campos,Valladolid,763,42 05 10,-04 59 43
-5.040277777777778,41.875833333333333,2604B,Medina de Rioseco,Medina de Rioseco,Valladolid,731,41 52 33,-05 02 25
-5.271666666666667,41.548611111111114,2536D,Morales del Toro,Morales de Toro,Zamora,710,41 32 55,-05 16 18
-5.481388888888889,41.236666666666665,2555B,Fuentesauco,Fuentesaúco,Zamora,811,41 14 12,-05 28 53
-5.5925,41.856388888888887,2611D,Villafáfila,Villafáfila,Zamora,690,41 51 23,-05 35 33
-5.735277777777778,41.515555555555558,2614,Zamora,Zamora,Zamora,656,41 30 56,-05 44 07
-6.64,42.082222222222221,2766E,Puebla de Sanabria,Robleda-Cervantes,Zamora,935,42 04 56,-06 38 24
-6.279722222222222,41.941388888888888,2775X,Villardeciervos,Villardeciervos,Zamora,850,41 56 29,-06 16 47
-6.007222222222222,42.078055555555558,2777K,Santibañez de Vidriales,Santibáñez de Vidriales,Zamora,737,42 04 41,-06 00 26
-5.908888888888889,41.785555555555554,2789H,Pozuelo de Tabara,Pozuelo de Tábara,Zamora,711,41 47 08,-05 54 32
-6.141944444444444,41.533888888888889,2804F,Villadepera,Villadepera,Zamora,790,41 32 02,-06 08 31
-6.022222222222222,41.304444444444442,2885K,Fresno de Sayago,Fresno de Sayago,Zamora,804,41 18 16,-06 01 20
-6.301388888888889,41.68333333333333,2966D,Alcañices,Alcañices,Zamora,840,41 41 00,-06 18 05
-1.213611111111111,42.490833333333335,9244X,Sos del Rey Católico,Sos del Rey Católico,Zaragoza,626,42 29 27,-01 12 49
-1.723333333333333,41.914722222222224,9299X,Tarazona,Tarazona,Zaragoza,475,41 54 53,-01 43 24
-1.139722222222222,42.121111111111112,9321X,Ejea de los Caballeros,Ejea de los Caballeros,Zaragoza,321,42 07 16,-01 08 23
-0.995833333333333,41.984166666666667,9336D,Castejon de Valdejasa,Castejón de Valdejasa,Zaragoza,442,41 59 03,-00 59 45
-1.895277777777778,41.293055555555554,9354X,Alhama de Aragon,Alhama de Aragón,Zaragoza,703,41 17 35,-01 53 43
-1.41,41.114444444444445,9390,Daroca,Daroca,Zaragoza,779,41 06 52,-01 24 36
-1.645277777777778,41.331111111111113,9394X,Calatayud,Calatayud,Zaragoza,600,41 19 52,-01 38 43
-1.380833333333333,41.481111111111112,9427X,La Almunia de Doña Godina,"Almunia de Doña Godina, La",Zaragoza,370,41 28 52,-01 22 51
-0.935,41.62083333333333,9434P,"Zaragoza, Valdespartera",Zaragoza,Zaragoza,254,41 37 15,-00 56 06
-0.882222222222222,41.633333333333333,9443V,"Zaragoza, Canal",Zaragoza,Zaragoza,258,41 38 00,-00 52 56
-0.617222222222222,41.796666666666667,9495Y,Leciñena,Leciñena,Zaragoza,405,41 47 48,-00 37 02
-0.885833333333333,41.443055555555553,9501X,Valmadrid,Valmadrid,Zaragoza,535,41 26 35,-00 53 09
-0.503888888888889,41.429166666666667,9510X,Quinto,Quinto,Zaragoza,205,41 25 45,-00 30 14
-0.037777777777778,41.230277777777779,9574X,Caspe,Caspe,Zaragoza,190,41 13 49,-00 02 16
-0.174444444444444,41.5225,9576C,Bujaraloz,"Almolda, La",Zaragoza,357,41 31 21,-00 10 28
